{"type": "Feature", "properties": {"name": "Szczecin", "osm_id": 404940}, "geometry": {"type": "Polygon", "coordinates": [[[14.4438273, 53.4847711], [14.4449763, 53.4845753], [14.4475341, 53.4835244], [14.4478511, 53.4834199], [14.4486311, 53.4831627], [14.451834, 53.4819655], [14.453257, 53.4815853], [14.4552548, 53.4798543], [14.4577981, 53.4782329], [14.4606002, 53.4764464], [14.4605892, 53.4763724], [14.4605719, 53.4763078], [14.4599809, 53.4749094], [14.4595193, 53.4739098], [14.45869, 53.4728927], [14.4586303, 53.4726061], [14.4589688, 53.4725198], [14.4611996, 53.4702095], [14.463948, 53.4673631], [14.4647259, 53.4664485], [14.4652572, 53.4658572], [14.4661446, 53.4649626], [14.4670573, 53.4640932], [14.4693739, 53.4619755], [14.4700644, 53.461352], [14.4702962, 53.4609932], [14.4706015, 53.4594884], [14.469632, 53.4596841], [14.4683564, 53.4599344], [14.4674726, 53.4601097], [14.4666353, 53.4602812], [14.466109, 53.4603961], [14.4657508, 53.4604789], [14.4652536, 53.4606079], [14.4645866, 53.460761], [14.4636943, 53.460961], [14.4629198, 53.4611345], [14.462914, 53.4610977], [14.4614635, 53.4565305], [14.4618195, 53.4564952], [14.4623524, 53.4564424], [14.4632965, 53.4563489], [14.4633687, 53.4563417], [14.4645988, 53.4562049], [14.4646415, 53.4562006], [14.4657266, 53.4560909], [14.4660081, 53.4560625], [14.4663474, 53.456019], [14.4669222, 53.4559197], [14.4678133, 53.4557046], [14.4687465, 53.4554703], [14.4706686, 53.4549689], [14.4700935, 53.454553], [14.4683795, 53.4533134], [14.471238, 53.4528024], [14.4711993, 53.4525642], [14.471567, 53.4525266], [14.4719415, 53.4524797], [14.4727053, 53.4522715], [14.4730279, 53.4497593], [14.4653045, 53.4501672], [14.4648073, 53.449495], [14.4643322, 53.4483371], [14.4639906, 53.4476152], [14.4632245, 53.4460693], [14.4622595, 53.4462274], [14.4615033, 53.4463494], [14.4599376, 53.4465924], [14.4603355, 53.4471518], [14.460617, 53.44742], [14.4582292, 53.4478194], [14.4556093, 53.447822], [14.4551112, 53.4467222], [14.4531575, 53.4467581], [14.4487707, 53.4481917], [14.4469465, 53.4452839], [14.4459704, 53.4442903], [14.4459424, 53.4442225], [14.445959, 53.4441675], [14.446714, 53.4440115], [14.4481472, 53.4437153], [14.4492267, 53.4435424], [14.4526247, 53.4431646], [14.4563193, 53.4425128], [14.4568566, 53.442418], [14.4572514, 53.4423484], [14.4581439, 53.4421909], [14.4589268, 53.4420528], [14.4599213, 53.4420027], [14.4617808, 53.4419089], [14.4628912, 53.4419282], [14.4629922, 53.4419449], [14.4673847, 53.4407903], [14.4732919, 53.4391813], [14.4740059, 53.4392233], [14.4742792, 53.439258], [14.474537, 53.4392606], [14.4746699, 53.4392373], [14.4750463, 53.4391369], [14.4750671, 53.4391084], [14.4752675, 53.438989], [14.4753825, 53.4389433], [14.4758453, 53.4389079], [14.4764543, 53.4388797], [14.4765615, 53.4388665], [14.4769169, 53.4387232], [14.4771335, 53.4386531], [14.4773684, 53.4385405], [14.4774918, 53.4384539], [14.4775155, 53.4384413], [14.4775477, 53.4384352], [14.4779991, 53.438433], [14.4786382, 53.4385186], [14.4788735, 53.4385314], [14.4790344, 53.4385189], [14.4790847, 53.4384893], [14.4795806, 53.4382918], [14.4797861, 53.4381771], [14.4800499, 53.4379938], [14.4801342, 53.4378996], [14.4803213, 53.4375823], [14.480401, 53.4374896], [14.4804487, 53.4374482], [14.480646, 53.4373527], [14.4814127, 53.4370249], [14.4816531, 53.4368827], [14.482211, 53.436697], [14.4824603, 53.4366194], [14.4829703, 53.4364979], [14.4819313, 53.4354367], [14.4817093, 53.4347141], [14.4818362, 53.434139], [14.4819648, 53.4335558], [14.4801429, 53.4291055], [14.4799442, 53.4286184], [14.4797401, 53.4281323], [14.4795353, 53.4276434], [14.4794324, 53.4273987], [14.479381, 53.4272769], [14.4793585, 53.427226], [14.4793279, 53.4271568], [14.4772696, 53.427422], [14.4764825, 53.4275202], [14.47609, 53.4275714], [14.4756976, 53.4276243], [14.475356, 53.426817], [14.4749806, 53.4269993], [14.4742609, 53.425668], [14.4735493, 53.4242601], [14.4731292, 53.4234574], [14.4730346, 53.4232812], [14.47273, 53.4227137], [14.4723288, 53.4219391], [14.4721903, 53.4216647], [14.4720583, 53.4214033], [14.4719152, 53.4211197], [14.4717117, 53.4207166], [14.4711624, 53.4196711], [14.4709382, 53.4186922], [14.4709513, 53.4184871], [14.4691271, 53.417741], [14.4751462, 53.4178199], [14.4751325, 53.4172783], [14.4772305, 53.4172937], [14.4773035, 53.4146957], [14.4774862, 53.4146947], [14.4781726, 53.41524], [14.4804163, 53.417313], [14.4805076, 53.4173144], [14.4809138, 53.4176657], [14.4810481, 53.4177378], [14.4813115, 53.4177742], [14.4816394, 53.4178066], [14.4824811, 53.4178327], [14.4827336, 53.4178289], [14.4828152, 53.417815], [14.4828887, 53.4177894], [14.4836276, 53.4174433], [14.4844796, 53.4172257], [14.4844518, 53.4162731], [14.4844497, 53.4156864], [14.4844415, 53.4134144], [14.4844403, 53.4130814], [14.4844407, 53.4129892], [14.4844537, 53.4103149], [14.484469, 53.4071707], [14.481394, 53.4068305], [14.4766415, 53.4063807], [14.4723609, 53.4059251], [14.4723647, 53.4055814], [14.4714223, 53.4016092], [14.4702152, 53.4013556], [14.4682524, 53.4008987], [14.4719417, 53.3999908], [14.4754963, 53.3990939], [14.4771, 53.3987655], [14.4764494, 53.3986595], [14.4781469, 53.3983645], [14.478098, 53.3981753], [14.4796052, 53.3978813], [14.4803144, 53.3977179], [14.4806191, 53.3975697], [14.4808751, 53.3974117], [14.4810918, 53.3972417], [14.4812956, 53.397036], [14.4814606, 53.3968151], [14.4815777, 53.3966031], [14.4816388, 53.3964181], [14.4816609, 53.3962448], [14.4816585, 53.3960626], [14.4816002, 53.3958895], [14.4814096, 53.3955214], [14.4811693, 53.3952807], [14.4809451, 53.3950892], [14.4804413, 53.3947203], [14.4802725, 53.3946193], [14.4798813, 53.3944332], [14.4789162, 53.3940003], [14.4795273, 53.3937309], [14.4794949, 53.3936822], [14.4804465, 53.393313], [14.481642, 53.392802], [14.481816, 53.3927009], [14.4862097, 53.3908913], [14.4873934, 53.391931], [14.488598, 53.3929686], [14.4891948, 53.3933267], [14.4902221, 53.3936584], [14.4917726, 53.39364], [14.4958842, 53.3925972], [14.4990478, 53.3917473], [14.4999202, 53.3915451], [14.5026568, 53.3908336], [14.5051919, 53.3901159], [14.5056148, 53.3900905], [14.5063419, 53.389825], [14.5067761, 53.3896636], [14.5078811, 53.3893784], [14.5085845, 53.3892265], [14.5107227, 53.3885523], [14.5145231, 53.387506], [14.5147022, 53.3877175], [14.517667, 53.3868685], [14.5180759, 53.3867927], [14.5206054, 53.3865874], [14.5224867, 53.3864652], [14.5235572, 53.3864102], [14.5247174, 53.3862872], [14.5259972, 53.386104], [14.5266028, 53.3859537], [14.5281876, 53.3852998], [14.5293459, 53.3846209], [14.5300424, 53.3842957], [14.5309995, 53.3837895], [14.5322373, 53.3833557], [14.5341182, 53.3827669], [14.5355724, 53.3823826], [14.5344779, 53.3803346], [14.5339388, 53.3784191], [14.533506, 53.3770034], [14.5332436, 53.3756526], [14.5330435, 53.3750857], [14.5328612, 53.3734532], [14.5336491, 53.3731734], [14.5374444, 53.3719735], [14.5380576, 53.3724565], [14.5381299, 53.3727426], [14.538278, 53.3732305], [14.5384018, 53.3737633], [14.5385632, 53.3742433], [14.5386472, 53.3746534], [14.5387766, 53.3751605], [14.5390892, 53.3764182], [14.5393235, 53.3758926], [14.5397228, 53.3754387], [14.5401022, 53.3753177], [14.5423506, 53.3759546], [14.5453069, 53.3752271], [14.5466319, 53.375166], [14.5481855, 53.3754693], [14.5495508, 53.3749547], [14.5494935, 53.3744798], [14.5498846, 53.3740302], [14.5507788, 53.3739777], [14.5522387, 53.3745086], [14.555411, 53.3739673], [14.5557397, 53.3737715], [14.5566198, 53.3737625], [14.5568761, 53.3730443], [14.5584413, 53.3726032], [14.5586016, 53.3720397], [14.5600698, 53.3714733], [14.5611746, 53.3720623], [14.5662044, 53.371406], [14.5674165, 53.3712446], [14.5685774, 53.3717148], [14.5697769, 53.3715698], [14.5712477, 53.3712135], [14.5718824, 53.3712126], [14.5729183, 53.3715391], [14.5743229, 53.3715922], [14.5759493, 53.3705922], [14.5771828, 53.369685], [14.5777231, 53.369599], [14.5797399, 53.3687576], [14.5802368, 53.3681557], [14.5824399, 53.3679192], [14.5841462, 53.3681681], [14.58485, 53.3678499], [14.585335, 53.3678152], [14.586355, 53.3670637], [14.5836361, 53.3654884], [14.581138, 53.3638421], [14.5778459, 53.3620815], [14.5749566, 53.3614776], [14.5704706, 53.361631], [14.5675368, 53.3612124], [14.5606327, 53.3594469], [14.5563488, 53.3559235], [14.5548471, 53.3541207], [14.5537288, 53.3527755], [14.5507859, 53.3494048], [14.5496626, 53.3482636], [14.5490387, 53.3478258], [14.546509, 53.3469539], [14.5452677, 53.3462625], [14.5445935, 53.345965], [14.5417234, 53.3446276], [14.5399205, 53.3433325], [14.5394084, 53.3425889], [14.5388417, 53.341576], [14.537973, 53.3403321], [14.5369859, 53.3395351], [14.5360899, 53.3389188], [14.5330808, 53.3368491], [14.5324868, 53.3362701], [14.532192, 53.3357675], [14.5314196, 53.3348126], [14.5310768, 53.334136], [14.5309531, 53.333833], [14.5308732, 53.3336434], [14.5307549, 53.3334271], [14.5322258, 53.3332158], [14.5343214, 53.332871], [14.5366347, 53.3326896], [14.53874, 53.3326648], [14.54047, 53.3327605], [14.5416018, 53.3329069], [14.5421486, 53.3330542], [14.5427673, 53.3330603], [14.5436921, 53.3316273], [14.5440873, 53.3323824], [14.5448958, 53.3322725], [14.5454465, 53.3321716], [14.5457212, 53.3321009], [14.5460631, 53.3320915], [14.5464723, 53.332029], [14.5466844, 53.3319896], [14.5472761, 53.3319141], [14.5476455, 53.3318464], [14.5487107, 53.3314426], [14.5490243, 53.3312148], [14.5491937, 53.3311268], [14.5492915, 53.3312025], [14.5494288, 53.3311121], [14.5495304, 53.331081], [14.5498958, 53.3310533], [14.5502512, 53.3310492], [14.5504348, 53.3310194], [14.5505609, 53.3310191], [14.5508885, 53.3309469], [14.5509855, 53.3309371], [14.5511116, 53.3308761], [14.5516489, 53.3306602], [14.5519435, 53.3305906], [14.5526641, 53.3304827], [14.5532055, 53.3304875], [14.5536768, 53.330535], [14.5538394, 53.3305327], [14.5541162, 53.3305704], [14.5543371, 53.3305922], [14.5545194, 53.3305697], [14.554866, 53.3306028], [14.5552029, 53.3306524], [14.5556499, 53.3306732], [14.5559082, 53.3307267], [14.5574479, 53.330773], [14.5576315, 53.3306756], [14.5577646, 53.3305887], [14.5578256, 53.3305274], [14.557944, 53.3304649], [14.5581343, 53.3302873], [14.5583447, 53.3301725], [14.559176, 53.3299275], [14.5593763, 53.3299185], [14.5595515, 53.329838], [14.5600152, 53.3298003], [14.5603931, 53.3297062], [14.5604971, 53.3296557], [14.560692, 53.329601], [14.5608266, 53.3294421], [14.561002, 53.3293264], [14.5610537, 53.3292402], [14.5613905, 53.328956], [14.561878, 53.3287228], [14.5622237, 53.3284897], [14.562418, 53.3284152], [14.5627779, 53.3280853], [14.5629085, 53.3279987], [14.5647526, 53.3290866], [14.5657849, 53.3284588], [14.5662984, 53.3280445], [14.566692, 53.3273848], [14.5669411, 53.3267419], [14.5668894, 53.3261102], [14.5670181, 53.3253892], [14.5668888, 53.3251898], [14.5666426, 53.3250968], [14.5668399, 53.3250537], [14.5672293, 53.3248967], [14.5678529, 53.3241636], [14.5680823, 53.3238939], [14.5683693, 53.3236288], [14.5689662, 53.3232371], [14.5712064, 53.3222408], [14.5720506, 53.321716], [14.5720091, 53.3221361], [14.5715393, 53.3228883], [14.5706351, 53.3231537], [14.5709331, 53.3238194], [14.5756617, 53.3237233], [14.5788403, 53.3237192], [14.5831809, 53.3240071], [14.5845998, 53.3241365], [14.584174, 53.3245986], [14.5835663, 53.3256215], [14.5820823, 53.3271809], [14.5814486, 53.3276373], [14.5805501, 53.3282135], [14.5783226, 53.3301747], [14.5762614, 53.3321002], [14.5751205, 53.3335035], [14.5770323, 53.3337718], [14.579433, 53.3338344], [14.5791807, 53.3343707], [14.5811262, 53.3346539], [14.5835143, 53.3346624], [14.5858528, 53.3347557], [14.5868929, 53.3348255], [14.5884173, 53.3352194], [14.5886436, 53.3355695], [14.5896356, 53.335922], [14.5896446, 53.3364363], [14.5903521, 53.3365459], [14.5903633, 53.3360912], [14.5924675, 53.3363023], [14.5935413, 53.3365436], [14.5925827, 53.33777], [14.5920944, 53.3383617], [14.5914505, 53.3392076], [14.5901695, 53.3398636], [14.5901744, 53.3404623], [14.5905671, 53.3412327], [14.5905912, 53.3414062], [14.5912185, 53.3430445], [14.5913724, 53.343514], [14.5916063, 53.3439201], [14.5917556, 53.3443113], [14.5919906, 53.3443869], [14.592568, 53.3445526], [14.5933044, 53.3447025], [14.5937505, 53.3447793], [14.5944518, 53.3450797], [14.5950089, 53.3451894], [14.5951582, 53.3452411], [14.595871, 53.3455571], [14.5965017, 53.3460079], [14.596853, 53.3461645], [14.5974374, 53.3463927], [14.5985667, 53.3471546], [14.5986615, 53.3472385], [14.5987654, 53.3473363], [14.5993372, 53.3476696], [14.5995868, 53.3478397], [14.5997304, 53.34803], [14.5998237, 53.348203], [14.6002868, 53.3485891], [14.6004468, 53.3488088], [14.6007375, 53.3491368], [14.601551, 53.3497584], [14.6017171, 53.3499479], [14.6017661, 53.3501517], [14.6017803, 53.3503442], [14.6023488, 53.3509644], [14.6028656, 53.3512367], [14.6030314, 53.3514279], [14.6032589, 53.3519244], [14.6038538, 53.3526489], [14.6042061, 53.352891], [14.60431, 53.3531439], [14.6045921, 53.3533519], [14.6047233, 53.3535336], [14.6051033, 53.3541169], [14.6057666, 53.3546933], [14.6064352, 53.3544763], [14.6086738, 53.3539402], [14.609186, 53.3538851], [14.6106438, 53.3534061], [14.6130728, 53.3535138], [14.6142856, 53.3535565], [14.6147478, 53.3535979], [14.6161061, 53.3536411], [14.6176076, 53.3537134], [14.6196135, 53.3537922], [14.620436, 53.3555447], [14.6205989, 53.3561242], [14.6209489, 53.3571888], [14.6194353, 53.3572449], [14.6178343, 53.3573151], [14.6172418, 53.3575469], [14.6181862, 53.3601197], [14.6177049, 53.3601369], [14.6177811, 53.3604742], [14.617951, 53.3612262], [14.6181479, 53.3619859], [14.6177693, 53.3622732], [14.6183683, 53.3621797], [14.6185368, 53.362175], [14.6194788, 53.3622038], [14.6200512, 53.3623931], [14.6202653, 53.3627144], [14.6202808, 53.3629385], [14.6198098, 53.3635034], [14.6201511, 53.3636934], [14.6204575, 53.3638491], [14.6207427, 53.3640027], [14.6216315, 53.3644861], [14.6228403, 53.3649132], [14.6232664, 53.3650823], [14.6265208, 53.3658206], [14.6281778, 53.3659756], [14.6289951, 53.3660645], [14.6297258, 53.3660282], [14.6301167, 53.3660011], [14.6309956, 53.3659935], [14.6319398, 53.3660066], [14.6330155, 53.365907], [14.6342446, 53.3657378], [14.6349748, 53.3656684], [14.6343769, 53.3642027], [14.6354973, 53.3634135], [14.636404, 53.3633744], [14.6372867, 53.3633271], [14.6388114, 53.3633741], [14.6389549, 53.3634341], [14.6390384, 53.3634277], [14.640179, 53.3636902], [14.6405121, 53.3637754], [14.6408741, 53.3638981], [14.642087, 53.3647822], [14.642859, 53.3646553], [14.6432388, 53.3646278], [14.6437524, 53.3647278], [14.6444171, 53.3644642], [14.6482022, 53.3635941], [14.6484781, 53.3633026], [14.6495562, 53.3630312], [14.6509733, 53.3628925], [14.6511838, 53.3627108], [14.6518125, 53.3626253], [14.6523261, 53.3626321], [14.652682, 53.3625096], [14.6531615, 53.3624851], [14.653275, 53.3623858], [14.6533752, 53.3622647], [14.6544861, 53.3622593], [14.6563218, 53.3621201], [14.6573332, 53.3619794], [14.6582952, 53.3617726], [14.6584255, 53.3617776], [14.6587612, 53.3604256], [14.6593012, 53.3603266], [14.6593759, 53.3601566], [14.6595916, 53.3594999], [14.6596111, 53.3591985], [14.6595158, 53.3588176], [14.6594603, 53.3586599], [14.6594702, 53.3584853], [14.6594997, 53.3584437], [14.6595124, 53.358404], [14.6611642, 53.3574474], [14.66133, 53.3574718], [14.6622835, 53.3571698], [14.6624064, 53.3574367], [14.6626616, 53.3574021], [14.6627258, 53.357497], [14.6636945, 53.3575239], [14.6644163, 53.3567088], [14.6652537, 53.3560216], [14.6664511, 53.3552659], [14.6668479, 53.3552653], [14.6672395, 53.3555295], [14.6686512, 53.3558579], [14.670066, 53.3558916], [14.6705112, 53.3555613], [14.6707253, 53.3554186], [14.6720835, 53.3543787], [14.6722625, 53.3543296], [14.6728731, 53.3543795], [14.6730214, 53.3543706], [14.6745503, 53.3540637], [14.6750282, 53.353993], [14.6761485, 53.3539844], [14.6771665, 53.3538631], [14.6775536, 53.3536047], [14.6775966, 53.3534836], [14.6775332, 53.3532064], [14.6774497, 53.3530583], [14.6782898, 53.3529156], [14.6798522, 53.3532551], [14.6807891, 53.3535049], [14.6825986, 53.3538568], [14.6831409, 53.3541177], [14.6833629, 53.354219], [14.6835237, 53.3546315], [14.6842233, 53.3547982], [14.6849365, 53.3551052], [14.6854902, 53.3553835], [14.6870178, 53.3559177], [14.6881578, 53.3562381], [14.6888911, 53.3562029], [14.6894502, 53.356201], [14.6919959, 53.3562706], [14.6918832, 53.3565109], [14.6920285, 53.3567506], [14.6924637, 53.3573376], [14.6931397, 53.3576583], [14.693563, 53.3582303], [14.6936545, 53.3583424], [14.6939266, 53.358832], [14.6919415, 53.3589507], [14.6916691, 53.3598077], [14.6915169, 53.3603486], [14.6913277, 53.3611665], [14.6920649, 53.3607729], [14.6924158, 53.3605949], [14.6930182, 53.3603782], [14.693773, 53.3601939], [14.6957334, 53.3599162], [14.6966922, 53.3598117], [14.6977763, 53.3598205], [14.6986358, 53.3598117], [14.7005553, 53.3597223], [14.701415, 53.3596883], [14.7028656, 53.3597329], [14.7034185, 53.3597949], [14.7066688, 53.3605253], [14.7072792, 53.3606177], [14.7080179, 53.3606827], [14.7096344, 53.360721], [14.7106526, 53.3608371], [14.7191905, 53.3624106], [14.7199888, 53.3619597], [14.7208946, 53.3615518], [14.720782, 53.3614655], [14.7204575, 53.3612145], [14.71996, 53.3608307], [14.7195125, 53.3604854], [14.7214887, 53.3595477], [14.7198028, 53.3583779], [14.7185899, 53.357794], [14.7174653, 53.3568853], [14.718567, 53.3565326], [14.7157732, 53.3547224], [14.7146009, 53.3537742], [14.7135719, 53.3543673], [14.7123579, 53.3532686], [14.7111747, 53.3525523], [14.7099891, 53.3518119], [14.7072265, 53.349991], [14.7082892, 53.3497676], [14.7084971, 53.3498342], [14.7086431, 53.349903], [14.7088539, 53.3500409], [14.7090134, 53.3502275], [14.7092377, 53.3503611], [14.7094475, 53.350391], [14.7098775, 53.3507888], [14.7100001, 53.3508713], [14.7103684, 53.3510363], [14.7108195, 53.3513524], [14.7109083, 53.3513525], [14.7108773, 53.3514553], [14.710922, 53.3515139], [14.7111711, 53.3516204], [14.711395, 53.35175], [14.7116082, 53.3519499], [14.7128553, 53.350992], [14.7140392, 53.3515708], [14.7159466, 53.3521326], [14.716789, 53.3514827], [14.71572, 53.3507689], [14.7150224, 53.350319], [14.7153322, 53.3496471], [14.7165824, 53.350027], [14.7171162, 53.349465], [14.7182117, 53.3504341], [14.7220366, 53.3483533], [14.7199201, 53.3469835], [14.7163051, 53.3484904], [14.7145751, 53.347258], [14.7134439, 53.3463365], [14.7145241, 53.3458907], [14.7148748, 53.3454111], [14.714956, 53.3453002], [14.7150549, 53.3451649], [14.7151632, 53.3450168], [14.7155031, 53.3447047], [14.7159395, 53.3444423], [14.7159709, 53.3444228], [14.7160331, 53.3443847], [14.7141857, 53.3432279], [14.7143416, 53.3429489], [14.7150147, 53.3427564], [14.715796, 53.3430101], [14.716539, 53.3428915], [14.7179147, 53.3431126], [14.7192355, 53.3434966], [14.7205006, 53.3437582], [14.7224351, 53.3440733], [14.7227214, 53.3431274], [14.7232539, 53.3424163], [14.7232517, 53.3420245], [14.7232485, 53.3414702], [14.7235034, 53.3399806], [14.7240215, 53.3397767], [14.7242373, 53.3390116], [14.7242018, 53.3385926], [14.7243948, 53.3381029], [14.7244385, 53.3380798], [14.7260391, 53.3371572], [14.7263763, 53.3369969], [14.727333, 53.336542], [14.729241, 53.3361145], [14.7300896, 53.3359244], [14.7302169, 53.3358959], [14.7318392, 53.3356095], [14.7351151, 53.3365445], [14.7361831, 53.3354658], [14.735705, 53.3352089], [14.7353881, 53.3350286], [14.7351456, 53.3348778], [14.7348835, 53.3347258], [14.7344386, 53.3345311], [14.7342259, 53.3344774], [14.7350303, 53.3341595], [14.7361147, 53.3341732], [14.7370054, 53.3343876], [14.7380992, 53.3345714], [14.7394038, 53.3347615], [14.7395078, 53.3347616], [14.7386384, 53.3334911], [14.7392678, 53.3332528], [14.7399291, 53.3328761], [14.7407077, 53.3322999], [14.7408627, 53.3321852], [14.7414648, 53.3315983], [14.7421568, 53.3308321], [14.7428245, 53.3312188], [14.7428476, 53.3312566], [14.7429024, 53.3313465], [14.743722, 53.3318048], [14.7449009, 53.3321476], [14.7457441, 53.331224], [14.7458976, 53.3312685], [14.7460328, 53.3304736], [14.7461246, 53.3299342], [14.7462901, 53.3291903], [14.7475364, 53.3293316], [14.7476857, 53.3293557], [14.7482329, 53.3295209], [14.7486251, 53.3296284], [14.7491329, 53.3296052], [14.7493876, 53.3296424], [14.7500393, 53.3297662], [14.7506845, 53.3297748], [14.7511543, 53.3298222], [14.7513673, 53.3298289], [14.7513818, 53.3290174], [14.7516935, 53.3278105], [14.7546746, 53.3278918], [14.7564839, 53.3279518], [14.7579998, 53.3279542], [14.7593221, 53.3282868], [14.7602915, 53.3284244], [14.7614012, 53.3290919], [14.7615787, 53.3290592], [14.7616403, 53.3291009], [14.7619723, 53.3290503], [14.7619915, 53.3290453], [14.7620979, 53.3290172], [14.762233, 53.3289736], [14.7626557, 53.3289607], [14.7626899, 53.3289594], [14.7628985, 53.3289513], [14.7631493, 53.32893], [14.763869, 53.3293482], [14.7642279, 53.3295567], [14.76567, 53.3301489], [14.7659947, 53.3302822], [14.7661322, 53.3302478], [14.7663385, 53.3302572], [14.7664923, 53.3302172], [14.7667762, 53.3302357], [14.7673846, 53.3302916], [14.7674635, 53.3303263], [14.7678533, 53.3303504], [14.7679936, 53.3305187], [14.7679797, 53.3305336], [14.7685045, 53.3312749], [14.7685893, 53.3313425], [14.7685905, 53.3314452], [14.7686994, 53.3314682], [14.7686747, 53.3315374], [14.7686742, 53.3317055], [14.7686719, 53.3325102], [14.7691405, 53.3334408], [14.7680432, 53.3341956], [14.7697974, 53.3345995], [14.76844, 53.3354554], [14.7683326, 53.3355219], [14.7681741, 53.3356201], [14.7669347, 53.3360887], [14.7666044, 53.3362069], [14.7663539, 53.3362966], [14.7648107, 53.3368062], [14.7646047, 53.3352805], [14.7644956, 53.3344725], [14.7628224, 53.3340135], [14.7631881, 53.3358294], [14.7633137, 53.3374427], [14.7621604, 53.3379133], [14.7612417, 53.3384455], [14.7610384, 53.3385094], [14.760851, 53.3385856], [14.7601815, 53.3388712], [14.7590377, 53.3392621], [14.759023, 53.3392659], [14.7587944, 53.3393858], [14.7587041, 53.3394306], [14.7586311, 53.3394592], [14.7583908, 53.3391634], [14.7583896, 53.3391595], [14.7582867, 53.3388245], [14.7581805, 53.3381997], [14.7580932, 53.3377128], [14.7579861, 53.3369709], [14.7579322, 53.3365972], [14.7569846, 53.3353152], [14.7565486, 53.3355806], [14.7557255, 53.3362499], [14.7553, 53.336531], [14.7551337, 53.3366354], [14.7548287, 53.3369218], [14.7552068, 53.3381219], [14.755505, 53.3385219], [14.7559311, 53.3389583], [14.7561295, 53.3391311], [14.757106, 53.3397665], [14.75717, 53.3397827], [14.7577535, 53.3398828], [14.7574384, 53.3400492], [14.75719, 53.3402132], [14.7568838, 53.3404154], [14.756646, 53.3406507], [14.7563491, 53.3413481], [14.7563134, 53.341432], [14.7561758, 53.3416788], [14.7560725, 53.3418641], [14.7557704, 53.3424058], [14.7562484, 53.3426802], [14.7583811, 53.3420574], [14.7588824, 53.3419242], [14.7597156, 53.3417027], [14.7598038, 53.3415882], [14.760925, 53.3419112], [14.7616081, 53.3414635], [14.7608486, 53.3409703], [14.7615302, 53.340522], [14.7628658, 53.3406406], [14.7622213, 53.3410628], [14.7629984, 53.3414325], [14.7624578, 53.3422801], [14.7652618, 53.3425548], [14.7652407, 53.3426609], [14.7660611, 53.3427531], [14.7666936, 53.3428005], [14.7676285, 53.3428172], [14.7681563, 53.3430082], [14.7686789, 53.3432775], [14.768831, 53.3432133], [14.7716039, 53.3412848], [14.7727323, 53.3409083], [14.7738704, 53.3406416], [14.7744868, 53.3404194], [14.7735971, 53.3390926], [14.7744224, 53.3388295], [14.7756866, 53.3382143], [14.7757887, 53.338115], [14.7768126, 53.337996], [14.7773893, 53.3380881], [14.7779458, 53.3381967], [14.779001, 53.3379627], [14.778957, 53.3378685], [14.7807488, 53.3374076], [14.7819176, 53.3375812], [14.7827841, 53.3378553], [14.7843773, 53.3372704], [14.7843746, 53.3371845], [14.7844807, 53.3368678], [14.7846332, 53.336761], [14.7846707, 53.3366734], [14.7846168, 53.3364058], [14.7851525, 53.336129], [14.7853644, 53.3359868], [14.7856532, 53.3358951], [14.7858212, 53.3359092], [14.7859973, 53.3360818], [14.7860747, 53.3363463], [14.7861111, 53.3363919], [14.7862002, 53.33644], [14.786928, 53.3363176], [14.7873351, 53.3361391], [14.7876472, 53.3359553], [14.7879398, 53.3358774], [14.7880758, 53.3358588], [14.7883748, 53.3358104], [14.7885241, 53.3357816], [14.7890586, 53.3357746], [14.7900902, 53.3356157], [14.7904255, 53.3355125], [14.791152, 53.3352382], [14.7913173, 53.3351765], [14.7915238, 53.3351092], [14.7915943, 53.3349586], [14.7916162, 53.3347078], [14.7919089, 53.3341204], [14.79215, 53.3337525], [14.792214, 53.3337284], [14.7924126, 53.3336035], [14.7926798, 53.3335889], [14.7933946, 53.3336806], [14.7935972, 53.3336852], [14.7939508, 53.3336022], [14.7942863, 53.3335124], [14.7943659, 53.3334587], [14.7947394, 53.3326596], [14.7947038, 53.3324987], [14.7945083, 53.3323306], [14.7944631, 53.3323191], [14.7941936, 53.3320986], [14.7943399, 53.3318364], [14.7947111, 53.3315398], [14.7949374, 53.3314371], [14.7950197, 53.3314158], [14.7952662, 53.3314344], [14.7953195, 53.3314858], [14.7959639, 53.3316179], [14.7962171, 53.3317911], [14.7964693, 53.3317847], [14.7967316, 53.3316941], [14.7969022, 53.3316157], [14.7973699, 53.331244], [14.7976806, 53.3310936], [14.7979539, 53.331012], [14.7980741, 53.330994], [14.7986037, 53.3309847], [14.7991434, 53.3310437], [14.799474, 53.3310065], [14.7996897, 53.3308928], [14.7996948, 53.3308691], [14.7997958, 53.3306879], [14.799816, 53.3305582], [14.7999209, 53.3303775], [14.8000518, 53.3302655], [14.8002489, 53.3302148], [14.8006851, 53.3301718], [14.8010083, 53.3300559], [14.8012374, 53.3298648], [14.8012937, 53.3297296], [14.8011605, 53.3291924], [14.8012039, 53.3288599], [14.8012135, 53.3284211], [14.8012908, 53.3280823], [14.8015949, 53.3274491], [14.8015927, 53.3272451], [14.8015397, 53.3270922], [14.8013977, 53.3269087], [14.8008486, 53.3264243], [14.8007381, 53.3262072], [14.8009411, 53.3257734], [14.8038306, 53.327362], [14.8029296, 53.3294628], [14.8047556, 53.3303784], [14.8039362, 53.3310207], [14.805414, 53.3318176], [14.803334, 53.3336514], [14.8046164, 53.3343058], [14.8028441, 53.3354355], [14.8009662, 53.3366628], [14.7984737, 53.3382087], [14.7980501, 53.3383306], [14.7979381, 53.3382604], [14.7972466, 53.3379056], [14.7970715, 53.3380589], [14.7963048, 53.3386154], [14.7962156, 53.3386369], [14.7963329, 53.3386927], [14.7954225, 53.3389305], [14.7952538, 53.3390033], [14.7949351, 53.3392148], [14.7946887, 53.3393137], [14.7944015, 53.3393581], [14.7934526, 53.3397707], [14.7933788, 53.3403006], [14.792454, 53.3414262], [14.7922138, 53.3420772], [14.7921918, 53.3423043], [14.7918834, 53.3423739], [14.7918055, 53.3423599], [14.7918781, 53.3424027], [14.793314, 53.3430126], [14.7928967, 53.3432831], [14.7936677, 53.3437293], [14.7917304, 53.3451863], [14.7912399, 53.3449985], [14.790862, 53.3452711], [14.7899329, 53.3447979], [14.7887061, 53.3443083], [14.7878623, 53.3443748], [14.787011, 53.3442702], [14.7864695, 53.3439081], [14.7843228, 53.3447629], [14.7847455, 53.3448817], [14.7835692, 53.3457664], [14.7836969, 53.3460289], [14.7837793, 53.3463488], [14.7852662, 53.346596], [14.7851087, 53.3469368], [14.7886608, 53.3475238], [14.7880161, 53.3489041], [14.7879164, 53.3496166], [14.7883755, 53.3499385], [14.7879533, 53.3506298], [14.7874052, 53.3507219], [14.7866053, 53.3513151], [14.7841349, 53.3509532], [14.781857, 53.3506373], [14.7790762, 53.3502179], [14.7781861, 53.3500757], [14.7779419, 53.3499912], [14.7772069, 53.3499129], [14.7758483, 53.3490775], [14.7759152, 53.3489783], [14.7754349, 53.348594], [14.7757061, 53.3482384], [14.7741893, 53.3471523], [14.7752936, 53.3465058], [14.77479, 53.346166], [14.7748674, 53.3461223], [14.7734476, 53.3450395], [14.7715315, 53.3453497], [14.7713689, 53.3449105], [14.7706495, 53.3449642], [14.769908, 53.3449553], [14.769643, 53.3449673], [14.7692934, 53.3450354], [14.7688188, 53.3452069], [14.7683321, 53.3454221], [14.767542, 53.3459638], [14.7669559, 53.3462869], [14.7665621, 53.3465929], [14.7664813, 53.346842], [14.7665119, 53.3470842], [14.7665745, 53.3471755], [14.7670552, 53.3475193], [14.7670466, 53.3475712], [14.7668415, 53.3477935], [14.7666005, 53.3479068], [14.7664312, 53.3479608], [14.7660601, 53.3481139], [14.765821, 53.3482635], [14.7656429, 53.3484026], [14.7656287, 53.3485099], [14.76571, 53.3485623], [14.7659493, 53.3486082], [14.7662681, 53.3487617], [14.7664286, 53.348871], [14.7663468, 53.3490127], [14.7661452, 53.349116], [14.7659257, 53.3492617], [14.7657178, 53.3493643], [14.7656035, 53.3494412], [14.765564, 53.3495682], [14.7654983, 53.3497329], [14.7653466, 53.34989], [14.764875, 53.3500304], [14.7647035, 53.3500583], [14.7644678, 53.35013], [14.764097, 53.3502259], [14.763564, 53.3503868], [14.7631477, 53.3505384], [14.763125, 53.3505683], [14.763066, 53.3506118], [14.7630323, 53.3507014], [14.7632335, 53.3508698], [14.7633656, 53.3510294], [14.7633963, 53.3510799], [14.7633849, 53.3511508], [14.763214, 53.351269], [14.7630453, 53.3513046], [14.7628489, 53.3513097], [14.7625012, 53.3513701], [14.7624025, 53.3514254], [14.7622904, 53.3514377], [14.7622452, 53.351494], [14.7622713, 53.3515882], [14.7625958, 53.3517506], [14.7627288, 53.3518594], [14.7627226, 53.351985], [14.7626743, 53.3521563], [14.7625657, 53.3522366], [14.7624346, 53.3523227], [14.7623309, 53.3524755], [14.7623029, 53.3526756], [14.7623218, 53.3528703], [14.7622233, 53.3530713], [14.7621078, 53.3532737], [14.7618297, 53.3534556], [14.7617201, 53.3535854], [14.7616736, 53.3536808], [14.7617449, 53.3537375], [14.7619111, 53.3537208], [14.7620815, 53.3537461], [14.7622338, 53.3538767], [14.7622782, 53.3541094], [14.7622514, 53.3542514], [14.7621379, 53.354414], [14.7619828, 53.3544997], [14.7619471, 53.3545977], [14.7616108, 53.354806], [14.7613751, 53.3549139], [14.7607338, 53.3554202], [14.760465, 53.3555851], [14.7600905, 53.3557717], [14.7600106, 53.3559282], [14.7600252, 53.3561758], [14.7598517, 53.3565451], [14.759699, 53.3567824], [14.7594423, 53.3569795], [14.759184, 53.3570978], [14.7591072, 53.3571676], [14.7589797, 53.3572585], [14.758591, 53.357463], [14.7585056, 53.3577644], [14.758469, 53.358335], [14.7583936, 53.3589198], [14.7583372, 53.3592637], [14.7583131, 53.3597962], [14.7582642, 53.360057], [14.7582036, 53.3607212], [14.7586218, 53.3610686], [14.7587055, 53.3611179], [14.7589936, 53.3612875], [14.7591026, 53.3613547], [14.7594995, 53.3615811], [14.7594789, 53.3616442], [14.7586397, 53.3620385], [14.7572754, 53.3627763], [14.7561909, 53.3633628], [14.756592, 53.3635246], [14.755903, 53.3639815], [14.7547789, 53.3639421], [14.7532693, 53.3641233], [14.751468, 53.3647656], [14.7497665, 53.3651015], [14.7469256, 53.3655166], [14.7465068, 53.3658493], [14.7454882, 53.3664846], [14.7441135, 53.3673025], [14.7421804, 53.3688278], [14.7419229, 53.3689919], [14.7416259, 53.3691831], [14.7415292, 53.3692306], [14.7411228, 53.3694081], [14.7411061, 53.3698889], [14.740048, 53.3695953], [14.7390757, 53.369055], [14.7380569, 53.36867], [14.7380303, 53.3686684], [14.7377127, 53.3686487], [14.7372223, 53.3689519], [14.7369449, 53.3691689], [14.7367659, 53.3693194], [14.7367522, 53.3694467], [14.7368337, 53.3697358], [14.7368968, 53.3697728], [14.7368883, 53.3698179], [14.7368683, 53.3698463], [14.736763, 53.3699038], [14.7366367, 53.3699674], [14.7366006, 53.3700631], [14.7364996, 53.370141], [14.7367084, 53.3702885], [14.7371986, 53.3703909], [14.7367629, 53.3705924], [14.7365796, 53.3706369], [14.7363102, 53.3707006], [14.736184, 53.3707602], [14.7360948, 53.3708043], [14.7357422, 53.3709672], [14.7355407, 53.3708482], [14.735357, 53.3708738], [14.7351992, 53.3712462], [14.7351839, 53.3716113], [14.7352203, 53.3717842], [14.7353438, 53.3718947], [14.7353508, 53.3721199], [14.7350614, 53.3723359], [14.7347187, 53.3724134], [14.7344797, 53.372427], [14.7335688, 53.3721563], [14.7334376, 53.3721276], [14.7330524, 53.3720075], [14.7327922, 53.3719867], [14.7325394, 53.3720503], [14.7323728, 53.3721141], [14.7322213, 53.3723486], [14.7319755, 53.3725943], [14.7320597, 53.3727724], [14.7320893, 53.3728746], [14.7320699, 53.3730304], [14.7320034, 53.3731944], [14.732173, 53.3733038], [14.7328995, 53.3740392], [14.7332742, 53.3747495], [14.7350849, 53.3743432], [14.7359099, 53.3744575], [14.7360202, 53.3747634], [14.7358371, 53.3747848], [14.7358886, 53.3753293], [14.7358587, 53.375554], [14.7386768, 53.3758221], [14.7403386, 53.3754955], [14.7405003, 53.3754604], [14.7439546, 53.3772994], [14.7464204, 53.3782757], [14.7468024, 53.3785513], [14.7476084, 53.3788046], [14.748132, 53.3789554], [14.7506892, 53.3797356], [14.753348, 53.3808468], [14.7539733, 53.3811294], [14.7560599, 53.3821181], [14.7575662, 53.3828968], [14.7581267, 53.3831439], [14.7587538, 53.3832003], [14.7604973, 53.382999], [14.7625664, 53.3826764], [14.7631935, 53.3823957], [14.763613, 53.3766655], [14.7660267, 53.3767335], [14.7679591, 53.3767562], [14.7692524, 53.376804], [14.7692684, 53.3768041], [14.770164, 53.3768122], [14.7717709, 53.3768434], [14.7751261, 53.3769184], [14.7748797, 53.3806083], [14.774875, 53.3809785], [14.774889, 53.3818499], [14.7748237, 53.3820663], [14.7709011, 53.3824876], [14.7709419, 53.3826375], [14.7673306, 53.3830232], [14.7667534, 53.3831408], [14.766339, 53.3831803], [14.7659132, 53.3832267], [14.7663326, 53.3834137], [14.7670893, 53.3843948], [14.7679046, 53.3852317], [14.7682094, 53.3855844], [14.7687528, 53.3860977], [14.7687681, 53.3858798], [14.769468, 53.3860425], [14.7700407, 53.3861757], [14.7719786, 53.3869382], [14.7717557, 53.3871527], [14.7737214, 53.3878902], [14.7746369, 53.3882556], [14.7762916, 53.388853], [14.7790497, 53.3898619], [14.7800332, 53.3902639], [14.7809998, 53.3906613], [14.7812856, 53.3907842], [14.7825348, 53.3912375], [14.7837868, 53.391709], [14.7857576, 53.3924512], [14.7870036, 53.3929806], [14.7877441, 53.3932436], [14.7892964, 53.3939479], [14.7902955, 53.3944071], [14.7910506, 53.3961021], [14.7909702, 53.3972386], [14.7879269, 53.3969155], [14.7869884, 53.397872], [14.7859818, 53.3989353], [14.7853755, 53.3997102], [14.7836706, 53.4020578], [14.780029, 53.4021094], [14.7803735, 53.4031116], [14.7779883, 53.4029798], [14.7755252, 53.4040915], [14.772953, 53.4044542], [14.7725547, 53.404695], [14.7715692, 53.4052737], [14.7710599, 53.4056037], [14.7706439, 53.4047399], [14.7700134, 53.4048438], [14.769696, 53.4040003], [14.7672069, 53.4052542], [14.766375, 53.4070158], [14.7651845, 53.4070119], [14.7632518, 53.4069425], [14.7599727, 53.4067604], [14.7574751, 53.4066279], [14.7565921, 53.406572], [14.7557683, 53.4065497], [14.7548608, 53.4064699], [14.7531957, 53.4063667], [14.7514989, 53.4062529], [14.7413882, 53.4054821], [14.7387724, 53.4046658], [14.7372505, 53.40421], [14.730281, 53.4045712], [14.7288901, 53.4046351], [14.7267762, 53.4047418], [14.7247373, 53.4055525], [14.7243348, 53.4057188], [14.7235048, 53.4060445], [14.7217493, 53.4067426], [14.7199761, 53.4074668], [14.7198652, 53.4075601], [14.7188999, 53.4091916], [14.7184765, 53.4099173], [14.7181283, 53.4104916], [14.7171759, 53.4121886], [14.7168549, 53.4127308], [14.7186821, 53.4132942], [14.7194122, 53.4135644], [14.7200969, 53.4138816], [14.7207094, 53.414134], [14.7212152, 53.4144594], [14.7232076, 53.4149981], [14.7255014, 53.4156766], [14.7312352, 53.4173416], [14.7317322, 53.4175107], [14.7320945, 53.4176503], [14.7325251, 53.4178377], [14.7343947, 53.4187732], [14.736958, 53.420005], [14.7393198, 53.4212353], [14.7416626, 53.4223973], [14.742406, 53.4226777], [14.7427866, 53.4227837], [14.7426647, 53.4229383], [14.7465591, 53.4240308], [14.7504741, 53.4251208], [14.751926, 53.4255835], [14.7525979, 53.4258272], [14.7487128, 53.4299455], [14.7473893, 53.4313634], [14.7470396, 53.4316779], [14.7479022, 53.4322087], [14.7497515, 53.433362], [14.7511275, 53.4342902], [14.7521514, 53.4349447], [14.752312, 53.4350252], [14.752734, 53.4352092], [14.754742, 53.4366059], [14.7579765, 53.4386823], [14.7615132, 53.4409452], [14.7619886, 53.4412454], [14.761069, 53.4414353], [14.7601529, 53.4415278], [14.7601162, 53.4415315], [14.7598855, 53.4415801], [14.7592915, 53.4417097], [14.7583798, 53.4419087], [14.7582403, 53.4419244], [14.7577305, 53.441982], [14.7576363, 53.4419926], [14.7575449, 53.4420002], [14.7567367, 53.4420666], [14.7566331, 53.4420752], [14.7561622, 53.4421123], [14.7557804, 53.4421424], [14.7526683, 53.4424131], [14.7523545, 53.4425718], [14.7507303, 53.4432228], [14.75018, 53.4432984], [14.7487104, 53.4433711], [14.7477139, 53.44356], [14.7456789, 53.444042], [14.744052, 53.4408807], [14.7434989, 53.439733], [14.7412342, 53.4401482], [14.7408599, 53.4391761], [14.7408608, 53.4388612], [14.7409293, 53.4382861], [14.7409513, 53.4381557], [14.7397005, 53.4372626], [14.7375704, 53.4358495], [14.7360519, 53.4348679], [14.733944, 53.4348773], [14.7321789, 53.4348729], [14.7319759, 53.4348806], [14.7306978, 53.4351259], [14.7303657, 53.4349263], [14.7299619, 53.434762], [14.7298618, 53.4347102], [14.7296108, 53.4344721], [14.7290179, 53.4341149], [14.7288954, 53.4340023], [14.7286297, 53.433671], [14.7281953, 53.4328367], [14.7275502, 53.4318725], [14.7267807, 53.4308883], [14.7250768, 53.430029], [14.7226555, 53.4289153], [14.7217584, 53.4285161], [14.7216713, 53.4284708], [14.7208448, 53.4280864], [14.7198626, 53.4276935], [14.7188422, 53.4274779], [14.7186006, 53.4274474], [14.7186177, 53.4274116], [14.7181266, 53.4273488], [14.7180728, 53.4274498], [14.7173267, 53.4276264], [14.7167154, 53.4278218], [14.7150847, 53.4285455], [14.7133693, 53.4293296], [14.7108599, 53.4277126], [14.7101644, 53.4273832], [14.7100197, 53.4269957], [14.7097904, 53.4268033], [14.7094224, 53.4266114], [14.7091846, 53.4264924], [14.7088265, 53.426489], [14.7087415, 53.4264849], [14.7067544, 53.4283443], [14.7054297, 53.4296773], [14.7033365, 53.4318974], [14.7011663, 53.434328], [14.7003778, 53.4350485], [14.7008926, 53.4352926], [14.7012817, 53.4358631], [14.7018292, 53.4361945], [14.7019934, 53.436402], [14.7022001, 53.4365237], [14.7024181, 53.4367055], [14.7025152, 53.4371635], [14.7028223, 53.4374092], [14.7027977, 53.4375903], [14.7028224, 53.4376967], [14.7026988, 53.437811], [14.7026641, 53.4379503], [14.702318, 53.4382207], [14.7022488, 53.4383924], [14.7021684, 53.4384437], [14.7021621, 53.4386685], [14.7020216, 53.4388887], [14.7021424, 53.4390277], [14.7023847, 53.4393364], [14.7025738, 53.43938], [14.7028892, 53.4395026], [14.7032909, 53.4395842], [14.7036242, 53.4397345], [14.7038782, 53.4398933], [14.7041226, 53.4400667], [14.7044339, 53.4404288], [14.7045915, 53.440636], [14.7049679, 53.4408028], [14.7048472, 53.4411026], [14.7051057, 53.4413433], [14.7052255, 53.4417928], [14.7053085, 53.4422678], [14.7053565, 53.4430131], [14.7048061, 53.4433288], [14.7057349, 53.4434193], [14.7056962, 53.4438431], [14.7057193, 53.4440513], [14.7059386, 53.4445078], [14.7063519, 53.4448834], [14.7070847, 53.4451259], [14.7078761, 53.4454178], [14.7082689, 53.4457032], [14.7084848, 53.4458656], [14.7087621, 53.4460148], [14.7091319, 53.4461516], [14.7091976, 53.4465003], [14.7094338, 53.4466791], [14.7095935, 53.4470067], [14.7097953, 53.4473583], [14.7099148, 53.4474963], [14.7098794, 53.4478598], [14.7110076, 53.4481283], [14.7110831, 53.4483258], [14.7114028, 53.448733], [14.7116479, 53.449159], [14.7118165, 53.4492823], [14.7119223, 53.4494996], [14.7119806, 53.4496115], [14.7120456, 53.449825], [14.7120544, 53.4500499], [14.712056, 53.4505903], [14.7121017, 53.4508243], [14.7119765, 53.4510476], [14.711573, 53.451941], [14.7113084, 53.4526564], [14.7108726, 53.4524912], [14.710193, 53.452786], [14.7094933, 53.453104], [14.7093008, 53.4535667], [14.7089967, 53.4538925], [14.7085117, 53.454301], [14.7081701, 53.4545007], [14.7078826, 53.454573], [14.7079052, 53.4547371], [14.7078913, 53.4549796], [14.7075694, 53.455324], [14.7076904, 53.4555993], [14.7079808, 53.4557617], [14.7081102, 53.4559327], [14.708321, 53.4561272], [14.7085683, 53.4563753], [14.7087708, 53.4567503], [14.7089857, 53.4569292], [14.708983, 53.4570095], [14.7091199, 53.4572051], [14.7092764, 53.4575782], [14.7093338, 53.4577566], [14.7094122, 53.4581142], [14.7093673, 53.4584756], [14.7096624, 53.458963], [14.7097621, 53.4592421], [14.7096956, 53.4594315], [14.7096275, 53.4595167], [14.7095781, 53.4594691], [14.7091949, 53.4594674], [14.708731, 53.4594447], [14.7086434, 53.45944], [14.7085418, 53.4595708], [14.7090445, 53.4596415], [14.7091941, 53.459632], [14.7095055, 53.4596634], [14.7088244, 53.4600661], [14.7088987, 53.4602189], [14.7090637, 53.4602584], [14.7093739, 53.460236], [14.7097951, 53.4599795], [14.7099283, 53.460205], [14.7096211, 53.4603379], [14.709436, 53.4604302], [14.7090378, 53.4604325], [14.7086701, 53.4602945], [14.7084866, 53.4600506], [14.7083211, 53.4600571], [14.7078652, 53.4601479], [14.7079373, 53.4603232], [14.7099603, 53.4607647], [14.7104002, 53.461138], [14.7106307, 53.461312], [14.710604, 53.4614023], [14.7105715, 53.4615941], [14.7105761, 53.4619591], [14.7105024, 53.462316], [14.7105238, 53.4625006], [14.7103801, 53.4627917], [14.7104287, 53.4629477], [14.7103788, 53.4630392], [14.7103706, 53.4630468], [14.7097653, 53.4630188], [14.7088525, 53.4628881], [14.708113, 53.463035], [14.7075702, 53.4630432], [14.7066972, 53.4634622], [14.7076481, 53.4636345], [14.7082075, 53.4632826], [14.7087502, 53.4632741], [14.7093264, 53.4632457], [14.7100595, 53.4631294], [14.7100431, 53.4633354], [14.7093755, 53.4639477], [14.7092434, 53.4641173], [14.7091719, 53.4642639], [14.7090445, 53.4646164], [14.708669, 53.4649521], [14.7083894, 53.4651548], [14.7084104, 53.4655342], [14.7083314, 53.4658936], [14.7079917, 53.4663021], [14.7076917, 53.4666214], [14.7074847, 53.4668645], [14.7072003, 53.4672814], [14.7069819, 53.467631], [14.7071323, 53.4677381], [14.7069239, 53.4678017], [14.7065703, 53.4679581], [14.7062191, 53.4682576], [14.7057149, 53.4684641], [14.7052372, 53.4686864], [14.704943, 53.46892], [14.7045906, 53.4690857], [14.7040529, 53.4692485], [14.7037375, 53.4695889], [14.7034227, 53.4696767], [14.7032228, 53.4696642], [14.7028933, 53.4696219], [14.702563, 53.4696001], [14.7020218, 53.4695817], [14.7018345, 53.4695645], [14.7014939, 53.4694137], [14.7009177, 53.4692997], [14.7003592, 53.4691637], [14.6998032, 53.4690247], [14.6993947, 53.4686995], [14.6989986, 53.4683212], [14.6975942, 53.4682471], [14.6972683, 53.4682374], [14.6969697, 53.4683682], [14.6962975, 53.4684547], [14.6960629, 53.4688144], [14.6953769, 53.4693456], [14.6951981, 53.4694489], [14.6949511, 53.469686], [14.6935913, 53.4698844], [14.692117, 53.4701465], [14.6909903, 53.4702798], [14.6908724, 53.4713802], [14.6913377, 53.4719985], [14.6924162, 53.4718716], [14.6931145, 53.4715696], [14.6929434, 53.4709342], [14.6932887, 53.4704816], [14.6943962, 53.4704811], [14.6948471, 53.4711408], [14.6950108, 53.4712186], [14.6952398, 53.4715393], [14.6959317, 53.4718237], [14.6956499, 53.4722227], [14.6960911, 53.4725366], [14.6961515, 53.4726526], [14.6961656, 53.4728141], [14.6961962, 53.4729705], [14.6960937, 53.473332], [14.6959817, 53.4736872], [14.6958463, 53.4740195], [14.6958561, 53.4739545], [14.6957459, 53.474076], [14.6955899, 53.4741876], [14.6953262, 53.4744183], [14.694946, 53.4746845], [14.6944301, 53.4748994], [14.6936237, 53.4753248], [14.6931927, 53.4754088], [14.6925825, 53.4754774], [14.6928235, 53.4756266], [14.6929109, 53.4758041], [14.6930817, 53.4765413], [14.6931531, 53.4767173], [14.6933185, 53.4768436], [14.6933963, 53.4770062], [14.6934098, 53.4772145], [14.6943619, 53.4776542], [14.6948466, 53.477662], [14.695048, 53.4778003], [14.695414, 53.4781051], [14.6959732, 53.4782607], [14.6962759, 53.4791796], [14.6966492, 53.4791816], [14.697549, 53.4785216], [14.6979334, 53.4784674], [14.6984421, 53.478681], [14.6988753, 53.4787446], [14.6988132, 53.4788122], [14.6988754, 53.4790183], [14.699084, 53.4793297], [14.6992326, 53.4797235], [14.6991624, 53.4801423], [14.6988552, 53.4804423], [14.6987694, 53.4805542], [14.6982218, 53.4804537], [14.697495, 53.4804483], [14.6967624, 53.4804374], [14.696365, 53.4806446], [14.6960764, 53.4809598], [14.6959559, 53.4815164], [14.6955283, 53.4817848], [14.6955733, 53.4824967], [14.6954333, 53.4827298], [14.6953262, 53.4828103], [14.6952131, 53.48289], [14.6952725, 53.4830451], [14.6953115, 53.4831146], [14.6952981, 53.483477], [14.6955128, 53.4836613], [14.6957013, 53.483695], [14.6959193, 53.4837617], [14.6964896, 53.4839522], [14.6967377, 53.4840216], [14.6971689, 53.4842097], [14.6973047, 53.4843899], [14.6975392, 53.4846937], [14.6977997, 53.485063], [14.6978475, 53.4851344], [14.6979072, 53.4854474], [14.6981269, 53.4857494], [14.6980049, 53.4857919], [14.6977476, 53.4858732], [14.6975543, 53.4860061], [14.6971275, 53.4861198], [14.6966419, 53.4862074], [14.6962741, 53.4862727], [14.6955747, 53.4864394], [14.694946, 53.4866513], [14.6948264, 53.486729], [14.6946511, 53.486872], [14.6944527, 53.4870799], [14.6942284, 53.4873111], [14.6941983, 53.4876081], [14.6941256, 53.4877426], [14.6941844, 53.4880293], [14.6942426, 53.4883415], [14.6944253, 53.4886873], [14.6945599, 53.4890239], [14.6945892, 53.4892752], [14.694593, 53.4897243], [14.6946113, 53.4900836], [14.6946657, 53.4904371], [14.6946323, 53.4908177], [14.6945798, 53.4910516], [14.6944529, 53.4913515], [14.6942349, 53.4916742], [14.6942601, 53.4918703], [14.6942693, 53.4920397], [14.6945869, 53.4924141], [14.6947333, 53.4923228], [14.6949976, 53.4923096], [14.695248, 53.4923915], [14.6955391, 53.4924029], [14.6959291, 53.4923948], [14.6961199, 53.4923997], [14.6965258, 53.4924733], [14.6968444, 53.49256], [14.6973645, 53.4927259], [14.6973909, 53.4927518], [14.6978373, 53.4928913], [14.6979997, 53.4930855], [14.6983717, 53.4933873], [14.6985647, 53.493533], [14.6990925, 53.4937144], [14.6996988, 53.4938354], [14.7002363, 53.4939585], [14.700346, 53.4940748], [14.7004457, 53.4942285], [14.700628, 53.4944434], [14.7007988, 53.4945816], [14.7008082, 53.4948347], [14.7007842, 53.4950922], [14.700664, 53.4954503], [14.7005363, 53.4958083], [14.7005069, 53.4961461], [14.7006979, 53.4963755], [14.7006943, 53.496404], [14.7006463, 53.4964453], [14.7005238, 53.4964918], [14.700433, 53.4968409], [14.7002982, 53.4969077], [14.7000902, 53.4970709], [14.6999481, 53.4973601], [14.6996522, 53.4975466], [14.6995622, 53.4977926], [14.7003438, 53.4982959], [14.7002891, 53.4986645], [14.7003725, 53.4988571], [14.7003627, 53.4990444], [14.700307, 53.4992528], [14.7002786, 53.4996412], [14.7005863, 53.5000703], [14.7006339, 53.5003066], [14.7006273, 53.5005317], [14.7005084, 53.5007437], [14.7005715, 53.5010807], [14.7006399, 53.5011906], [14.7005752, 53.5012866], [14.7004009, 53.5013077], [14.7003283, 53.5014891], [14.7001498, 53.5016773], [14.7001382, 53.5019159], [14.7001873, 53.5020725], [14.7003496, 53.5023936], [14.7007386, 53.5025157], [14.7007835, 53.5026847], [14.7008971, 53.5027221], [14.7010754, 53.5028159], [14.7010421, 53.5029802], [14.700736, 53.5029987], [14.7007087, 53.5030458], [14.7008148, 53.5031087], [14.7009239, 53.5032012], [14.7009717, 53.5032732], [14.7010484, 53.5033662], [14.7012501, 53.5034334], [14.701644, 53.5034991], [14.7016784, 53.5036405], [14.7010092, 53.5037161], [14.7009589, 53.5037598], [14.7009857, 53.5039078], [14.7010577, 53.5039454], [14.7016632, 53.5038309], [14.7017131, 53.5039205], [14.7017233, 53.5039511], [14.7017091, 53.504027], [14.7016387, 53.5040828], [14.7011041, 53.504151], [14.7009944, 53.5040649], [14.7009186, 53.5039894], [14.7008268, 53.5040381], [14.7008795, 53.5041468], [14.7009787, 53.5042985], [14.7009691, 53.5043367], [14.7010175, 53.5043562], [14.7010562, 53.5043421], [14.7012319, 53.5043368], [14.7017886, 53.5042302], [14.701955, 53.5044204], [14.7018736, 53.5044682], [14.7011602, 53.5048057], [14.7010194, 53.5047143], [14.700807, 53.5047578], [14.7007442, 53.5047843], [14.7007156, 53.504832], [14.7006883, 53.5048625], [14.7007615, 53.5050472], [14.7008132, 53.5051043], [14.7002743, 53.5061564], [14.7000346, 53.5066071], [14.6997916, 53.5069257], [14.6995756, 53.5070874], [14.6994975, 53.5073099], [14.6994861, 53.5074031], [14.699539, 53.5075486], [14.6996115, 53.507595], [14.6997943, 53.5075652], [14.7000609, 53.5075357], [14.7001074, 53.5075399], [14.700136, 53.507592], [14.7001251, 53.5076113], [14.6999619, 53.5077212], [14.6998766, 53.5077233], [14.6996213, 53.5080225], [14.6996991, 53.5080445], [14.6996607, 53.508094], [14.69959, 53.5080947], [14.6994528, 53.5082017], [14.6993829, 53.5082566], [14.6991308, 53.5083852], [14.6986168, 53.508589], [14.6986183, 53.5086214], [14.6984709, 53.5086591], [14.697749, 53.5087866], [14.6969941, 53.5088927], [14.6959054, 53.5088916], [14.6956889, 53.5087726], [14.6955606, 53.5087722], [14.6952254, 53.5087806], [14.6950326, 53.5089222], [14.6949333, 53.5089341], [14.6947934, 53.5088799], [14.6946731, 53.5089523], [14.6946456, 53.5090688], [14.6947295, 53.5093561], [14.6948886, 53.5094674], [14.6949046, 53.5095866], [14.694808, 53.5098347], [14.6948593, 53.5100331], [14.6947612, 53.5103197], [14.6948268, 53.51043], [14.6944248, 53.5108359], [14.6941558, 53.5110022], [14.6940531, 53.5109998], [14.693868, 53.5111528], [14.693307, 53.5114061], [14.6929551, 53.5115981], [14.692804, 53.5116245], [14.692628, 53.51159], [14.6923895, 53.5115927], [14.691946, 53.5117378], [14.6917088, 53.5117528], [14.6913798, 53.5117135], [14.6913077, 53.5117329], [14.6910047, 53.511756], [14.6908906, 53.5117304], [14.6908132, 53.5116362], [14.690662, 53.5115063], [14.6904488, 53.5114487], [14.690158, 53.5114121], [14.6896297, 53.511188], [14.6890905, 53.5108684], [14.6885397, 53.5107011], [14.6879196, 53.5106159], [14.687288, 53.510594], [14.6865891, 53.5107975], [14.6863336, 53.5110074], [14.6860099, 53.5111074], [14.6856068, 53.5112592], [14.6853322, 53.5113361], [14.6850091, 53.5114207], [14.6848205, 53.5115381], [14.6844701, 53.5116587], [14.6846289, 53.5115522], [14.6844037, 53.5115781], [14.6841012, 53.5115067], [14.6836411, 53.5116695], [14.683393, 53.5118143], [14.6837987, 53.5118606], [14.6834011, 53.5120311], [14.6831631, 53.5120609], [14.6829106, 53.5118589], [14.6826478, 53.5120764], [14.6820804, 53.5119915], [14.6813963, 53.5121373], [14.680955, 53.5122928], [14.680519, 53.5124093], [14.6802664, 53.5126385], [14.6797895, 53.5129327], [14.6796059, 53.5132437], [14.6794694, 53.5134293], [14.6793616, 53.5136912], [14.6793919, 53.5138315], [14.6792863, 53.5140509], [14.679012, 53.514457], [14.6797767, 53.5146746], [14.6797518, 53.5146821], [14.6794939, 53.5147236], [14.6793514, 53.5148685], [14.6788769, 53.5152728], [14.6788899, 53.5155398], [14.6788254, 53.5157131], [14.6786819, 53.5162176], [14.6786926, 53.5165178], [14.6786264, 53.517036], [14.6785881, 53.517259], [14.6786354, 53.5174445], [14.6788299, 53.5176525], [14.678848, 53.5177053], [14.6788523, 53.5178097], [14.6788947, 53.5181381], [14.6787141, 53.5185435], [14.6785483, 53.5188905], [14.678396, 53.519239], [14.6782677, 53.5194303], [14.6782251, 53.5195352], [14.6779044, 53.5205564], [14.6780386, 53.5205035], [14.678307, 53.5205071], [14.6784698, 53.5202896], [14.6781585, 53.5203436], [14.6781962, 53.5201666], [14.6784097, 53.520008], [14.6787885, 53.5200537], [14.6791477, 53.5201511], [14.6797876, 53.5202093], [14.6803065, 53.5203935], [14.6803562, 53.5204009], [14.6808949, 53.5208878], [14.6812151, 53.5212385], [14.6813807, 53.5213887], [14.6814234, 53.5216158], [14.6813349, 53.5217474], [14.6810576, 53.5220389], [14.6810286, 53.5222856], [14.6809176, 53.5224341], [14.6807218, 53.5225772], [14.6802649, 53.5228129], [14.6800149, 53.5229139], [14.6791405, 53.5230077], [14.6781852, 53.523771], [14.6780771, 53.5239983], [14.6781354, 53.5242458], [14.6783797, 53.5243467], [14.67844, 53.5241364], [14.6781306, 53.5240043], [14.6793373, 53.5238148], [14.6798001, 53.5238376], [14.6798197, 53.5238577], [14.6806933, 53.5244243], [14.6811958, 53.5244627], [14.6812581, 53.524527], [14.6809927, 53.5246479], [14.6813307, 53.5247722], [14.6814658, 53.5249461], [14.6815314, 53.5251214], [14.6815713, 53.5253419], [14.6815837, 53.5255033], [14.6817224, 53.5256482], [14.6818861, 53.5259677], [14.68186, 53.5260551], [14.6818113, 53.5263847], [14.6817853, 53.5267618], [14.6817915, 53.5271961], [14.681668, 53.5273835], [14.6815507, 53.527526], [14.6813981, 53.5276566], [14.6811819, 53.5279949], [14.6812782, 53.5280607], [14.6807767, 53.5281448], [14.6801498, 53.5291537], [14.6801386, 53.5292336], [14.680428, 53.5293062], [14.6807535, 53.5294777], [14.6812201, 53.5296005], [14.6816841, 53.5300921], [14.681853, 53.5303081], [14.6821149, 53.5305035], [14.6823545, 53.5305665], [14.6824827, 53.5308218], [14.6828097, 53.5310412], [14.6828392, 53.5311722], [14.6828673, 53.5311578], [14.6827709, 53.5312777], [14.6823539, 53.5312068], [14.6818714, 53.5313347], [14.6814297, 53.5316248], [14.6810789, 53.5319754], [14.6810277, 53.5321354], [14.6810069, 53.5325302], [14.6808939, 53.5326938], [14.6809204, 53.5327561], [14.6806397, 53.5328041], [14.6802737, 53.5329503], [14.6799643, 53.5332383], [14.6793288, 53.5333554], [14.6789964, 53.533604], [14.6789398, 53.5337273], [14.6788434, 53.5338563], [14.6791416, 53.5342888], [14.6788312, 53.5345017], [14.678789, 53.5347352], [14.6788438, 53.534863], [14.6786546, 53.5349825], [14.678303, 53.5350956], [14.6779211, 53.535377], [14.6776465, 53.5356986], [14.6774968, 53.5360991], [14.6766368, 53.5363468], [14.6761601, 53.5363514], [14.6758475, 53.5366084], [14.6757041, 53.5366319], [14.675319, 53.5366269], [14.6747177, 53.5366605], [14.674116, 53.5366859], [14.6735118, 53.5366828], [14.6731426, 53.5367834], [14.6728487, 53.5366847], [14.6725131, 53.536253], [14.6720027, 53.5361529], [14.6715339, 53.5366068], [14.6713163, 53.5365299], [14.6709782, 53.5363381], [14.6704434, 53.5360218], [14.669808, 53.5361638], [14.6693577, 53.5359379], [14.6688765, 53.5363481], [14.6683658, 53.5363485], [14.6678833, 53.5360462], [14.6680372, 53.5362563], [14.6680659, 53.536416], [14.6678286, 53.5365596], [14.6675138, 53.536614], [14.6671102, 53.5366224], [14.6666849, 53.5365668], [14.6664515, 53.536583], [14.6664273, 53.5365157], [14.6662192, 53.5364016], [14.6656476, 53.5361664], [14.6650319, 53.536195], [14.6648229, 53.5360424], [14.6648293, 53.5359364], [14.6642921, 53.5355654], [14.6642072, 53.5358932], [14.664034, 53.5358465], [14.6637077, 53.5359639], [14.6631072, 53.5359982], [14.6628589, 53.5360032], [14.6624979, 53.5359608], [14.6617858, 53.5361055], [14.6616286, 53.5360932], [14.6614291, 53.5360235], [14.6609444, 53.5359107], [14.6608526, 53.5359912], [14.6607432, 53.5359828], [14.6605706, 53.5358925], [14.6603949, 53.5359115], [14.6602452, 53.5358896], [14.659702, 53.5359424], [14.6594802, 53.5359775], [14.6589869, 53.5359943], [14.658645, 53.5359613], [14.6585517, 53.5359355], [14.6583537, 53.5358338], [14.6581583, 53.5356953], [14.6580131, 53.5354072], [14.657538, 53.5352836], [14.6573452, 53.5352162], [14.6571101, 53.5351275], [14.6564493, 53.5349965], [14.6562635, 53.5348864], [14.6558088, 53.5345661], [14.6552691, 53.5343907], [14.6549587, 53.5343179], [14.6548225, 53.5341753], [14.6545755, 53.5341895], [14.6545246, 53.5341605], [14.6545784, 53.5341303], [14.6545575, 53.5339806], [14.6543837, 53.5338019], [14.6544067, 53.5337756], [14.6544312, 53.5331452], [14.6544281, 53.5330424], [14.6546546, 53.5329839], [14.6547596, 53.532952], [14.6549275, 53.5326279], [14.6551975, 53.5324962], [14.6554663, 53.5321968], [14.6555214, 53.5321045], [14.6561763, 53.5318865], [14.6563019, 53.5315138], [14.6551252, 53.531296], [14.6549094, 53.5309508], [14.6547313, 53.5307187], [14.6546714, 53.5305272], [14.6545389, 53.5304541], [14.6545319, 53.5302799], [14.654256, 53.5301398], [14.653973, 53.529981], [14.6534277, 53.5296127], [14.6531878, 53.5294998], [14.6528231, 53.5294091], [14.6525917, 53.5292901], [14.652333, 53.5292605], [14.652365, 53.5290296], [14.6523291, 53.5288245], [14.6521735, 53.528631], [14.6519968, 53.5284866], [14.6520125, 53.5283008], [14.6518834, 53.5282627], [14.6519721, 53.5280572], [14.6515723, 53.5279906], [14.6514971, 53.5279606], [14.6514409, 53.5279181], [14.6514565, 53.5277363], [14.6513696, 53.5276695], [14.6512763, 53.5277006], [14.6511474, 53.5277093], [14.650884, 53.5277067], [14.650677, 53.5277008], [14.6502667, 53.5276646], [14.6500247, 53.527639], [14.6494605, 53.5275637], [14.6493624, 53.5275278], [14.6490516, 53.5274613], [14.6487488, 53.5274082], [14.6486065, 53.5273501], [14.6484654, 53.5273545], [14.6481776, 53.5272875], [14.6480933, 53.527242], [14.6479412, 53.5271792], [14.6477967, 53.5271541], [14.6477133, 53.5270882], [14.6473, 53.526995], [14.6471363, 53.526936], [14.6470145, 53.5268545], [14.6470064, 53.5267917], [14.6468942, 53.5267746], [14.6465375, 53.5266136], [14.6464106, 53.5265126], [14.6464954, 53.5262928], [14.6461089, 53.5263513], [14.6458087, 53.5263166], [14.6453905, 53.5261686], [14.645237, 53.5261632], [14.6450737, 53.5261107], [14.6449672, 53.5261113], [14.6449169, 53.5260946], [14.6447774, 53.5260238], [14.6446605, 53.5259949], [14.6445111, 53.5259412], [14.6444802, 53.5259413], [14.6443751, 53.5258766], [14.6437898, 53.5256967], [14.6432434, 53.5254943], [14.6429746, 53.5253708], [14.6425782, 53.5252683], [14.6394333, 53.5255492], [14.6393946, 53.5256068], [14.6392946, 53.5256041], [14.6391812, 53.5255904], [14.6390851, 53.5256412], [14.6390826, 53.5256755], [14.6389878, 53.5256957], [14.6388188, 53.5257503], [14.6387393, 53.5257949], [14.638754, 53.5258411], [14.6387105, 53.5258573], [14.6386032, 53.5258623], [14.6385979, 53.525912], [14.6384504, 53.5260057], [14.6385066, 53.5261112], [14.6386944, 53.5262033], [14.6387558, 53.5262844], [14.6387643, 53.526324], [14.6387947, 53.526357], [14.6388729, 53.526384], [14.638528, 53.5264319], [14.6383207, 53.5263932], [14.638253, 53.5263873], [14.6381902, 53.5263921], [14.6381922, 53.5264372], [14.6377375, 53.5265039], [14.6376675, 53.5264901], [14.6374827, 53.526576], [14.6372111, 53.5265908], [14.6371711, 53.5265441], [14.6371281, 53.5265272], [14.6370719, 53.5265602], [14.6370013, 53.5265802], [14.6369645, 53.5265526], [14.6369352, 53.5265672], [14.6368987, 53.5265991], [14.6368236, 53.5266819], [14.6370038, 53.5267726], [14.6370547, 53.5268032], [14.6370444, 53.526851], [14.6369316, 53.5270249], [14.6368555, 53.5270979], [14.6368076, 53.5271875], [14.6367425, 53.5272139], [14.6367519, 53.5272377], [14.6367645, 53.527253], [14.6367089, 53.5273017], [14.6366025, 53.527299], [14.6365912, 53.5273236], [14.6366315, 53.5273346], [14.6366633, 53.5273707], [14.6367274, 53.5273876], [14.6367111, 53.5274684], [14.6367057, 53.5275757], [14.6366598, 53.5276688], [14.6366074, 53.5276813], [14.6366052, 53.5277147], [14.6366358, 53.5277252], [14.6366344, 53.5278082], [14.6365834, 53.5278604], [14.6366055, 53.5278906], [14.6365574, 53.5279382], [14.6364783, 53.5279615], [14.6364888, 53.5280153], [14.6365429, 53.5280248], [14.6364665, 53.528362], [14.6364206, 53.5283751], [14.6364135, 53.5284047], [14.6364443, 53.5284102], [14.6364804, 53.5284408], [14.6365122, 53.5285191], [14.6365051, 53.5286134], [14.6364952, 53.5286184], [14.636506, 53.5286884], [14.6365235, 53.5287458], [14.6365158, 53.5288317], [14.636471, 53.5289022], [14.6365029, 53.5289226], [14.6364637, 53.5290011], [14.6364994, 53.5291912], [14.6365117, 53.5295922], [14.6364707, 53.5296472], [14.6363624, 53.5296694], [14.636396, 53.5297113], [14.6364994, 53.5297594], [14.6364887, 53.5299474], [14.6365209, 53.5303517], [14.6365711, 53.5304243], [14.6365278, 53.53049], [14.6365943, 53.5306172], [14.6366186, 53.5306948], [14.6366263, 53.5308785], [14.6366432, 53.5310015], [14.6365953, 53.5310738], [14.6366529, 53.5311148], [14.636754, 53.5313042], [14.6367494, 53.5313947], [14.6368419, 53.5314364], [14.6369037, 53.531536], [14.6370269, 53.5316728], [14.6370062, 53.5316911], [14.6370234, 53.5317376], [14.6371099, 53.5317709], [14.6371711, 53.5318409], [14.6371928, 53.5319439], [14.637276, 53.5320302], [14.6373602, 53.5320354], [14.6374829, 53.5322637], [14.6375144, 53.5324449], [14.6375443, 53.5324704], [14.6374931, 53.5326651], [14.6374835, 53.5328465], [14.6373924, 53.5330358], [14.6373367, 53.5331061], [14.6370873, 53.5332687], [14.6368987, 53.5333756], [14.6369443, 53.5334209], [14.6369346, 53.5334857], [14.6367778, 53.5336051], [14.6364974, 53.5336274], [14.6361357, 53.533694], [14.636037, 53.5337006], [14.6355962, 53.53382], [14.6353983, 53.5338289], [14.6353411, 53.5339311], [14.6287323, 53.5329569], [14.6282932, 53.5327935], [14.6195404, 53.53547], [14.6194677, 53.5354755], [14.6127219, 53.5359891], [14.6118206, 53.5360577], [14.6117101, 53.5360661], [14.6115574, 53.5361245], [14.6111165, 53.5365833], [14.6109169, 53.5367084], [14.6106236, 53.5367779], [14.6103051, 53.5368016], [14.6098903, 53.5367995], [14.6098427, 53.5367893], [14.6094261, 53.5367445], [14.608855, 53.5366213], [14.6085367, 53.5365625], [14.6069686, 53.5363647], [14.6066873, 53.5363559], [14.6061511, 53.536377], [14.6058228, 53.5364375], [14.6051917, 53.5366234], [14.6049055, 53.5367546], [14.6043784, 53.5370431], [14.6042774, 53.5370828], [14.604128, 53.5370765], [14.6038875, 53.537006], [14.6037755, 53.5369921], [14.6036605, 53.537019], [14.6032019, 53.5367375], [14.6028575, 53.5364742], [14.6025543, 53.5362001], [14.6027211, 53.5361433], [14.6030577, 53.5361208], [14.6032351, 53.5360612], [14.6034126, 53.5360335], [14.6036011, 53.5360488], [14.6037473, 53.5360444], [14.6053303, 53.535354], [14.6018054, 53.5333302], [14.6010847, 53.5330493], [14.6008354, 53.5331707], [14.600233, 53.5330894], [14.599944, 53.5329773], [14.5996497, 53.5328086], [14.5993572, 53.5326666], [14.5974436, 53.5322727], [14.5953536, 53.5321086], [14.595158, 53.5312845], [14.5950016, 53.5308041], [14.5939651, 53.5311012], [14.5935124, 53.5312441], [14.593029, 53.5316186], [14.5929493, 53.5317101], [14.5923519, 53.5322686], [14.5920597, 53.532656], [14.5912259, 53.5334773], [14.5910399, 53.5335828], [14.590723, 53.5338855], [14.5906257, 53.5338453], [14.5895565, 53.5334134], [14.5887898, 53.5331503], [14.5884214, 53.5329734], [14.5881837, 53.5328527], [14.587079, 53.5323634], [14.5867733, 53.5321316], [14.5863176, 53.532491], [14.5860797, 53.5323886], [14.5860549, 53.5324392], [14.5862379, 53.5325451], [14.5859493, 53.5326304], [14.5858605, 53.5330013], [14.5856735, 53.5331765], [14.5855736, 53.533013], [14.5855195, 53.5328657], [14.5854333, 53.532876], [14.5854628, 53.5329096], [14.5855232, 53.5331994], [14.5853641, 53.5333498], [14.5857694, 53.5334428], [14.5853805, 53.5337777], [14.5849847, 53.5340664], [14.5842767, 53.5344581], [14.5837997, 53.5346514], [14.5832771, 53.5348338], [14.5829734, 53.5349325], [14.5822053, 53.5350799], [14.581757, 53.5351571], [14.5810624, 53.5352715], [14.5810253, 53.5352939], [14.5810276, 53.5353244], [14.5811296, 53.5353374], [14.581196, 53.5353537], [14.5811413, 53.5353824], [14.5806638, 53.5353848], [14.5790386, 53.5356232], [14.5785367, 53.5357764], [14.5783654, 53.5356097], [14.5782504, 53.5354955], [14.5778686, 53.5350285], [14.5764602, 53.5332882], [14.5762104, 53.5333622], [14.5761297, 53.5334015], [14.5755532, 53.5335208], [14.574295, 53.5336014], [14.5742332, 53.533505], [14.5738957, 53.5335169], [14.5738743, 53.5328528], [14.5724311, 53.5328961], [14.5724686, 53.5336537], [14.5723378, 53.5337197], [14.5699656, 53.5338606], [14.5709619, 53.535091], [14.5721001, 53.536614], [14.5718174, 53.5367588], [14.5705201, 53.5376855], [14.5695323, 53.5373494], [14.5687205, 53.5371015], [14.5673852, 53.536781], [14.5657189, 53.536298], [14.5654857, 53.5362276], [14.5646918, 53.5359878], [14.5638329, 53.5356953], [14.5629247, 53.5353403], [14.5609616, 53.5346208], [14.5575143, 53.533343], [14.5567454, 53.5330364], [14.5560669, 53.5328468], [14.5558229, 53.5328778], [14.5557307, 53.53294], [14.5552657, 53.5329084], [14.5551212, 53.5328358], [14.5548862, 53.5327777], [14.5544987, 53.5326476], [14.5544716, 53.5325894], [14.5543487, 53.532486], [14.5543889, 53.5323661], [14.5542641, 53.5321868], [14.5542208, 53.5321943], [14.5541387, 53.5321049], [14.5541795, 53.5320454], [14.5544053, 53.5318962], [14.5546096, 53.5317915], [14.5546841, 53.5316543], [14.5545265, 53.531457], [14.5545491, 53.5313119], [14.5547339, 53.5308886], [14.554809, 53.5308051], [14.5546107, 53.5306538], [14.5545469, 53.5306383], [14.5543573, 53.53027], [14.5542874, 53.5302315], [14.5541778, 53.5300328], [14.5542435, 53.5299125], [14.5542062, 53.5298213], [14.5539511, 53.5297018], [14.553811, 53.529603], [14.5536632, 53.529562], [14.5535994, 53.5294394], [14.5534611, 53.5293669], [14.5533589, 53.529201], [14.5534746, 53.529083], [14.5534574, 53.5289839], [14.5534709, 53.5287852], [14.553555, 53.5286488], [14.5535975, 53.5285026], [14.5536258, 53.5284589], [14.5540218, 53.5282681], [14.5540973, 53.5281788], [14.5541051, 53.5280248], [14.5539823, 53.5278308], [14.5539591, 53.5276585], [14.553925, 53.5276326], [14.5539206, 53.5275437], [14.55388, 53.5274708], [14.553594, 53.5272404], [14.5535177, 53.5271138], [14.5535232, 53.5269948], [14.5535901, 53.5269073], [14.553609, 53.5266163], [14.5536014, 53.526436], [14.5536771, 53.5263209], [14.5539518, 53.5261796], [14.5543037, 53.5260603], [14.5545598, 53.5259063], [14.554611, 53.5257876], [14.5547285, 53.5256901], [14.5551182, 53.5255361], [14.5553926, 53.525504], [14.5561454, 53.5253388], [14.5562918, 53.5252585], [14.556675, 53.5249339], [14.5568182, 53.5247321], [14.5581646, 53.5243476], [14.558752, 53.5240694], [14.5589035, 53.5238336], [14.5589939, 53.5237517], [14.5592112, 53.5236928], [14.5593115, 53.5236961], [14.5595877, 53.5237582], [14.5597696, 53.5236829], [14.5598523, 53.5236812], [14.5599063, 53.523743], [14.5600347, 53.5238055], [14.5601969, 53.5238071], [14.5602806, 53.5237567], [14.56031, 53.5236048], [14.560225, 53.5235536], [14.5603477, 53.5234968], [14.5605893, 53.5234698], [14.5610057, 53.5235956], [14.5613419, 53.5235663], [14.5615516, 53.5235921], [14.5616994, 53.5237077], [14.5618569, 53.5236972], [14.5618975, 53.5236823], [14.5619468, 53.5236329], [14.5621383, 53.5234921], [14.5621591, 53.5234343], [14.5620896, 53.523374], [14.5620963, 53.5233194], [14.562325, 53.5229875], [14.5624024, 53.5229523], [14.562757, 53.5228897], [14.5628294, 53.5228294], [14.5628816, 53.5228478], [14.5635257, 53.5228326], [14.5638652, 53.522717], [14.563957, 53.522671], [14.5641193, 53.5224292], [14.564342, 53.5223858], [14.5644473, 53.5223168], [14.5644115, 53.5222587], [14.564777, 53.522015], [14.5649664, 53.5219775], [14.5650404, 53.5218267], [14.5652509, 53.5218211], [14.5652991, 53.5218228], [14.5659291, 53.5218453], [14.5666881, 53.5218546], [14.5684232, 53.5218758], [14.5685494, 53.5218773], [14.5686795, 53.5218801], [14.5684896, 53.5208053], [14.5682978, 53.5199206], [14.5683807, 53.5198648], [14.5691847, 53.520081], [14.5698804, 53.5202235], [14.5706811, 53.5204479], [14.5709282, 53.5215946], [14.571043, 53.5219187], [14.5712267, 53.5226407], [14.5713417, 53.5227284], [14.5720526, 53.5229028], [14.5739619, 53.5233218], [14.5739935, 53.5230733], [14.573881, 53.5227771], [14.5738555, 53.5221308], [14.5736656, 53.5215348], [14.5736175, 53.5209354], [14.5736045, 53.5207727], [14.5735866, 53.5205497], [14.5740299, 53.5200402], [14.5744463, 53.5201528], [14.5745121, 53.5201086], [14.5745513, 53.5200762], [14.5750654, 53.5195853], [14.5756434, 53.5191279], [14.575894, 53.5195232], [14.5772233, 53.5194699], [14.5779159, 53.519377], [14.5780916, 53.5192696], [14.5786639, 53.5192696], [14.5787373, 53.5188662], [14.5788415, 53.5188042], [14.5793326, 53.5188365], [14.5795925, 53.5186232], [14.5800999, 53.5184439], [14.5804602, 53.5182505], [14.5805816, 53.5180587], [14.5805433, 53.5178505], [14.5808591, 53.5177519], [14.5812614, 53.5177087], [14.5814423, 53.5174536], [14.5815915, 53.5170092], [14.5815523, 53.5165335], [14.5816316, 53.5161229], [14.5816182, 53.5158607], [14.5814434, 53.5156739], [14.5807492, 53.5152977], [14.5807701, 53.5148499], [14.5806237, 53.514155], [14.5803536, 53.5135813], [14.5802564, 53.5134453], [14.5802214, 53.5133439], [14.5802481, 53.5130995], [14.5803629, 53.5129487], [14.5809589, 53.5123237], [14.5815559, 53.5116263], [14.5817542, 53.511399], [14.582419, 53.5107197], [14.5830552, 53.510122], [14.5834083, 53.5097125], [14.5836112, 53.5091253], [14.5840226, 53.5075567], [14.5840702, 53.5073753], [14.5843269, 53.5061678], [14.5843277, 53.5058827], [14.584352, 53.505634], [14.5842935, 53.5054268], [14.5843028, 53.5053583], [14.5844045, 53.5052171], [14.5848895, 53.5051581], [14.5854069, 53.5051304], [14.5857726, 53.5052313], [14.58589, 53.5052462], [14.5863482, 53.5051984], [14.5864649, 53.5051639], [14.5866758, 53.505167], [14.5867818, 53.5051868], [14.5867907, 53.5052145], [14.5868135, 53.5052398], [14.5868569, 53.5052532], [14.5869696, 53.5052519], [14.5870921, 53.5052575], [14.5871532, 53.5052838], [14.5871409, 53.5052225], [14.5870734, 53.5051632], [14.5870304, 53.5050519], [14.5869875, 53.504902], [14.5869035, 53.5047466], [14.5867187, 53.5042934], [14.5865865, 53.5042842], [14.5865076, 53.5042469], [14.5864724, 53.5042092], [14.586266, 53.5040517], [14.5860494, 53.5040069], [14.5858806, 53.503863], [14.5857576, 53.5037932], [14.5856884, 53.5038284], [14.5856161, 53.5039061], [14.585461, 53.5039234], [14.585278, 53.5038411], [14.5849555, 53.5036868], [14.5848594, 53.5036512], [14.5848431, 53.5035484], [14.5847489, 53.5035335], [14.5846329, 53.5035936], [14.584345, 53.5034977], [14.5843389, 53.5034548], [14.5841765, 53.5034093], [14.5839672, 53.503336], [14.5836343, 53.5032277], [14.5837051, 53.5031545], [14.5835478, 53.5031271], [14.5832939, 53.5030942], [14.583071, 53.5030719], [14.5829865, 53.5029621], [14.583, 53.5028971], [14.5828985, 53.5028558], [14.5828601, 53.5028656], [14.582579, 53.5027634], [14.5824762, 53.5027877], [14.5823189, 53.5027181], [14.5822331, 53.5026457], [14.5820818, 53.5026394], [14.5816769, 53.5026132], [14.5814548, 53.5025907], [14.5813997, 53.5025862], [14.5813423, 53.5025571], [14.581314, 53.5025132], [14.5809625, 53.5023098], [14.5807388, 53.5022737], [14.5805132, 53.5022114], [14.5803865, 53.5022043], [14.580351, 53.502218], [14.5803142, 53.5021994], [14.5800072, 53.5021048], [14.5795582, 53.5019767], [14.57949, 53.5019839], [14.5791765, 53.5018778], [14.5790412, 53.5018905], [14.5788761, 53.5019281], [14.578617, 53.5020463], [14.5785045, 53.5020686], [14.5783314, 53.5021256], [14.5780239, 53.502157], [14.5778438, 53.5021547], [14.5777764, 53.5021517], [14.577625, 53.5021256], [14.5775765, 53.5021073], [14.5774826, 53.5020436], [14.5774653, 53.5019579], [14.5772827, 53.5018853], [14.577141, 53.5018303], [14.5771221, 53.5018214], [14.5770909, 53.5017893], [14.5770745, 53.5017695], [14.5769158, 53.5017109], [14.5768248, 53.5016956], [14.5767939, 53.50169], [14.5766174, 53.5016704], [14.5763749, 53.501704], [14.5762664, 53.5016996], [14.5760251, 53.5017841], [14.5760046, 53.5018156], [14.5759198, 53.5018265], [14.5757803, 53.501828], [14.5755977, 53.5017865], [14.5753252, 53.501591], [14.5752809, 53.5015781], [14.5751689, 53.5014551], [14.5750073, 53.5013631], [14.5745962, 53.5012242], [14.5741786, 53.5010149], [14.5741827, 53.5009963], [14.5741166, 53.5009395], [14.573964, 53.5008637], [14.5739022, 53.5008682], [14.5738451, 53.5008435], [14.5738036, 53.5007866], [14.5736935, 53.5007596], [14.5735389, 53.5006832], [14.5733958, 53.5005748], [14.5731678, 53.5004464], [14.5725424, 53.500184], [14.5723816, 53.5001166], [14.5714336, 53.4996928], [14.5709933, 53.4994959], [14.5706521, 53.4992988], [14.5669734, 53.500606], [14.5656803, 53.4994171], [14.5645439, 53.4986663], [14.562569, 53.4973254], [14.5591433, 53.4979927], [14.5591016, 53.497994], [14.5590683, 53.4979913], [14.5590432, 53.4979951], [14.5578071, 53.4981812], [14.5542574, 53.4987999], [14.5541201, 53.4988238], [14.5538273, 53.4984345], [14.5534413, 53.4979215], [14.5534122, 53.4978801], [14.553057, 53.4973749], [14.5525132, 53.4967073], [14.5522235, 53.4964471], [14.5518889, 53.4961465], [14.5517511, 53.4960227], [14.5516305, 53.4958989], [14.5513787, 53.4955657], [14.551117, 53.4951986], [14.5507689, 53.4942891], [14.5502937, 53.493521], [14.5494272, 53.4933998], [14.5483194, 53.4931491], [14.547929, 53.4931549], [14.5478329, 53.4932095], [14.5467251, 53.4930093], [14.5460119, 53.4929151], [14.5452825, 53.4929559], [14.5450992, 53.49293], [14.54366, 53.4926666], [14.5421597, 53.4924198], [14.5418063, 53.4934144], [14.5429003, 53.4936461], [14.5461111, 53.4942086], [14.5453593, 53.4943386], [14.5438617, 53.4946326], [14.5424267, 53.4949393], [14.541596, 53.4951506], [14.5414444, 53.4952371], [14.5416832, 53.4956122], [14.5419064, 53.4961158], [14.5416006, 53.4962023], [14.5414389, 53.4965049], [14.5415096, 53.4968625], [14.5418207, 53.4974566], [14.5415236, 53.4975576], [14.540962, 53.497696], [14.5412467, 53.4983754], [14.5406941, 53.498503], [14.5404167, 53.498606], [14.5401808, 53.4986579], [14.539809, 53.4989396], [14.5396449, 53.4987796], [14.5390661, 53.4988751], [14.5384773, 53.4970474], [14.5381947, 53.4962769], [14.5373887, 53.4964139], [14.5357809, 53.496745], [14.5336311, 53.4971295], [14.5340805, 53.4967347], [14.5333528, 53.4964302], [14.532856, 53.4961844], [14.5319617, 53.4957873], [14.5311232, 53.4954509], [14.5303194, 53.4953982], [14.5298794, 53.495412], [14.5293247, 53.4956234], [14.5299224, 53.4962665], [14.5276414, 53.4957529], [14.5265205, 53.4955646], [14.5261953, 53.4956584], [14.525578, 53.4958365], [14.5255809, 53.495969], [14.5255915, 53.4964564], [14.5247484, 53.4962771], [14.5237808, 53.4959936], [14.522874, 53.4960903], [14.5217912, 53.4961802], [14.5211143, 53.4964335], [14.5205509, 53.4967017], [14.5199664, 53.4967901], [14.5193342, 53.49697], [14.518824, 53.4969022], [14.5179886, 53.4968859], [14.5159915, 53.4970219], [14.5146471, 53.4967816], [14.514045, 53.4965546], [14.5134063, 53.4962938], [14.5121583, 53.4960762], [14.5106546, 53.4957835], [14.509557, 53.4957883], [14.5085512, 53.4959454], [14.5075979, 53.4957739], [14.5084261, 53.4941519], [14.5088436, 53.4931471], [14.5080248, 53.4928857], [14.5083152, 53.4921041], [14.5078084, 53.4919065], [14.5074631, 53.4916275], [14.5070687, 53.4914222], [14.5064401, 53.4911498], [14.5057066, 53.4910442], [14.5049002, 53.4909524], [14.5043424, 53.4909725], [14.5034493, 53.4909306], [14.5025886, 53.4908136], [14.5020527, 53.4906779], [14.501411, 53.4909837], [14.5009612, 53.4911486], [14.5004016, 53.4914245], [14.4997044, 53.4917159], [14.4991021, 53.4917861], [14.4984772, 53.4919707], [14.4967819, 53.4916024], [14.4962555, 53.4916363], [14.4962583, 53.4922905], [14.494349, 53.493028], [14.4932299, 53.4934884], [14.4929354, 53.493628], [14.4940994, 53.4924104], [14.4939706, 53.4923881], [14.4929124, 53.492205], [14.4926599, 53.4924648], [14.491773, 53.4924459], [14.491364, 53.4935292], [14.4909779, 53.4943037], [14.4894401, 53.4939445], [14.4883277, 53.4937634], [14.4875115, 53.4938611], [14.486349, 53.4935534], [14.4864489, 53.4930142], [14.4861663, 53.4929108], [14.4856307, 53.4928973], [14.4850431, 53.4927177], [14.4850292, 53.4931381], [14.4848527, 53.4935116], [14.4845784, 53.4938158], [14.4841221, 53.4937347], [14.4841455, 53.4936861], [14.4841443, 53.4934724], [14.4839487, 53.4933552], [14.4840591, 53.492996], [14.4835366, 53.492989], [14.4835404, 53.4927436], [14.4833796, 53.4927295], [14.4837702, 53.4918177], [14.4824795, 53.4916018], [14.4820065, 53.4915228], [14.4812134, 53.4914068], [14.480935, 53.493028], [14.4807144, 53.4946478], [14.4806327, 53.4951418], [14.4806059, 53.4953361], [14.4805984, 53.4955093], [14.480478, 53.4954882], [14.4789525, 53.4952366], [14.4787542, 53.4957026], [14.4778184, 53.4955495], [14.4766675, 53.4956398], [14.4753477, 53.4957473], [14.4743932, 53.4952684], [14.4731622, 53.4950259], [14.471958, 53.4945753], [14.4707837, 53.4943847], [14.4698454, 53.4934376], [14.4695757, 53.493242], [14.4691178, 53.4929099], [14.4682886, 53.4927975], [14.4682249, 53.4928384], [14.4680546, 53.4929013], [14.46747, 53.4937098], [14.4672192, 53.4941468], [14.4668211, 53.4946315], [14.4665887, 53.4951023], [14.4660719, 53.4958402], [14.4659153, 53.4959866], [14.4654816, 53.4962675], [14.4645349, 53.4970212], [14.4643821, 53.4973014], [14.4628371, 53.4967778], [14.4618917, 53.4962186], [14.4606575, 53.4959573], [14.4581861, 53.4952095], [14.4561416, 53.4957342], [14.4549019, 53.4963964], [14.4531784, 53.4963966], [14.4514435, 53.4961717], [14.4491739, 53.4963421], [14.4469647, 53.4961904], [14.446561, 53.4961237], [14.4457396, 53.4958987], [14.4439827, 53.495479], [14.4494416, 53.4948318], [14.4488534, 53.49378], [14.4485092, 53.4926905], [14.4467254, 53.4905184], [14.4465635, 53.4897258], [14.444878, 53.4871597], [14.4439835, 53.486083], [14.4440249, 53.4854285], [14.4443532, 53.4853505], [14.4438273, 53.4847711]]]}}