{"type": "FeatureCollection", "features": [{"type": "Feature", "geometry": {"type": "Point", "coordinates": [18.6123701, 54.3716508]}, "properties": {"university": "Politechnika Gdańska", "name": "Wydział Elektroniki, Telekomunikacji i Informatyki \"B\""}}, {"type": "Feature", "geometry": {"type": "Point", "coordinates": [18.6191235, 54.3714237]}, "properties": {"university": "Politechnika Gdańska", "name": "Gmach Główny"}}, {"type": "Feature", "geometry": {"type": "Point", "coordinates": [18.6132998, 54.3708414]}, "properties": {"university": "Politechnika Gdańska", "name": "Wydział Elektroniki, Telekomunikacji i Informatyki \"A\""}}, {"type": "Feature", "geometry": {"type": "Point", "coordinates": [18.6153717, 54.3707582]}, "properties": {"university": "Politechnika Gdańska", "name": "Studenckie Centrum \"Bratniak\""}}, {"type": "Feature", "geometry": {"type": "Point", "coordinates": [18.616596, 54.3701537]}, "properties": {"university": "Politechnika Gdańska", "name": "Wydział Zarządzania i Ekonomii"}}, {"type": "Feature", "geometry": {"type": "Point", "coordinates": [18.6147312, 54.3716172]}, "properties": {"university": "Politechnika Gdańska", "name": "Wydział Inżynierii Mechanicznej i Okrętownictwa"}}, {"type": "Feature", "geometry": {"type": "Point", "coordinates": [18.6170959, 54.3723445]}, "properties": {"university": "Politechnika Gdańska", "name": "Wydział Mechaniczny - Laboratorium Mechaniczne"}}, {"type": "Feature", "geometry": {"type": "Point", "coordinates": [18.613583, 54.3667592]}, "properties": {"university": "Politechnika Gdańska", "name": ""}}, {"type": "Feature", "geometry": {"type": "Point", "coordinates": [18.6204463, 54.3706538]}, "properties": {"university": "Politechnika Gdańska", "name": "Wydział Chemiczny \"B\""}}, {"type": "Feature", "geometry": {"type": "Point", "coordinates": [18.616336, 54.3727535]}, "properties": {"university": "Politechnika Gdańska", "name": "Auditorium Novum"}}, {"type": "Feature", "geometry": {"type": "Point", "coordinates": [18.612869, 54.368492]}, "properties": {"university": "Politechnika Gdańska", "name": "Wydział Elektrotechniki i Automatyki"}}, {"type": "Feature", "geometry": {"type": "Point", "coordinates": [18.6177864, 54.3719513]}, "properties": {"university": "Politechnika Gdańska", "name": "Wydział Elektrotechniki i Automatyki"}}, {"type": "Feature", "geometry": {"type": "Point", "coordinates": [18.621724, 54.3708995]}, "properties": {"university": "Politechnika Gdańska", "name": "Wydział Chemiczny \"C\""}}, {"type": "Feature", "geometry": {"type": "Point", "coordinates": [18.6178895, 54.3743995]}, "properties": {"university": "Politechnika Gdańska", "name": "Budynek Wysokich Napięć (PG)"}}, {"type": "Feature", "geometry": {"type": "Point", "coordinates": [18.6165019, 54.3708581]}, "properties": {"university": "Politechnika Gdańska", "name": "Gmach \"Żelbet\""}}, {"type": "Feature", "geometry": {"type": "Point", "coordinates": [18.632238, 54.3666271]}, "properties": {"university": "Gdański Uniwersytet Medyczny", "name": "Atheneum Gedanense Novum"}}, {"type": "Feature", "geometry": {"type": "Point", "coordinates": [18.6282785, 54.363989]}, "properties": {"university": "Gdański Uniwersytet Medyczny", "name": "Biblioteka Gdańskiego Uniwersytetu Medycznego"}}, {"type": "Feature", "geometry": {"type": "Point", "coordinates": [18.6139836, 54.3720742]}, "properties": {"university": "Politechnika Gdańska", "name": "Pawilon Jugosłowiański nr 1"}}, {"type": "Feature", "geometry": {"type": "Point", "coordinates": [18.5698307, 54.3963293]}, "properties": {"university": "Uniwersytet Gdański", "name": "ACK, stołówka, trzynastka, Logopedia"}}, {"type": "Feature", "geometry": {"type": "Point", "coordinates": [18.6164405, 54.372151]}, "properties": {"university": "Politechnika Gdańska", "name": "Kuźnia"}}, {"type": "Feature", "geometry": {"type": "Point", "coordinates": [18.618122, 54.371692]}, "properties": {"university": "Politechnika Gdańska", "name": "Hydromechanika"}}, {"type": "Feature", "geometry": {"type": "Point", "coordinates": [18.619572, 54.3721449]}, "properties": {"university": "Politechnika Gdańska", "name": "Centrum Informacji i Promocji"}}, {"type": "Feature", "geometry": {"type": "Point", "coordinates": [18.6178279, 54.3710809]}, "properties": {"university": "Politechnika Gdańska", "name": "Gmach \"B\""}}, {"type": "Feature", "geometry": {"type": "Point", "coordinates": [18.6208222, 54.3710416]}, "properties": {"university": "Politechnika Gdańska", "name": "Wydział Chemiczny \"A\""}}, {"type": "Feature", "geometry": {"type": "Point", "coordinates": [18.617333, 54.371473]}, "properties": {"university": "Politechnika Gdańska", "name": "Wydział Chemiczny D"}}, {"type": "Feature", "geometry": {"type": "Point", "coordinates": [18.616277, 54.371474]}, "properties": {"university": "Politechnika Gdańska", "name": "Wydział Inżynierii Lądowej i Środowiska"}}, {"type": "Feature", "geometry": {"type": "Point", "coordinates": [18.6221689, 54.371341]}, "properties": {"university": "Politechnika Gdańska", "name": "Centrum Nanotechnologii \"A\""}}, {"type": "Feature", "geometry": {"type": "Point", "coordinates": [18.573264, 54.3990262]}, "properties": {"university": "Uniwersytet Gdański", "name": "Wydział Nauk Społecznych UG"}}, {"type": "Feature", "geometry": {"type": "Point", "coordinates": [18.6142086, 54.3720278]}, "properties": {"university": "Politechnika Gdańska", "name": "Pawilon Jugosłowiański nr 2"}}, {"type": "Feature", "geometry": {"type": "Point", "coordinates": [18.6198942, 54.3720383]}, "properties": {"university": "Politechnika Gdańska", "name": "Portiernia Główna"}}, {"type": "Feature", "geometry": {"type": "Point", "coordinates": [18.6212425, 54.370404]}, "properties": {"university": "Politechnika Gdańska", "name": "Magazyn Odpadów i Odczynników Chemicznych"}}, {"type": "Feature", "geometry": {"type": "Point", "coordinates": [18.5706237, 54.3985398]}, "properties": {"university": "Uniwersytet Gdański", "name": "Wydział Filologiczny UG - Neofilologia"}}, {"type": "Feature", "geometry": {"type": "Point", "coordinates": [18.5768777, 54.3936042]}, "properties": {"university": "Uniwersytet Gdański", "name": "Wydział Chemii UG"}}, {"type": "Feature", "geometry": {"type": "Point", "coordinates": [18.6198615, 54.3742265]}, "properties": {"university": "Politechnika Gdańska", "name": "Wydawnictwo Politechniki Gdańskiej"}}, {"type": "Feature", "geometry": {"type": "Point", "coordinates": [18.6471473, 54.3537099]}, "properties": {"university": "Uniwersytet Gdański", "name": "Uniwersytet Gdański Instytut Historii Sztuki Instytut Archeologii i Etnologii"}}, {"type": "Feature", "geometry": {"type": "Point", "coordinates": [18.7961167, 54.3486098]}, "properties": {"university": "Uniwersytet Gdański", "name": "Stacja Biologiczna Uniwersytetu Gdańskiego"}}, {"type": "Feature", "geometry": {"type": "Point", "coordinates": [18.6131048, 54.3728361]}, "properties": {"university": "Politechnika Gdańska", "name": "Wydział Inżynierii Mechanicznej i Okrętownictwa"}}]}