{"type": "FeatureCollection", "features": [{"type": "Feature", "geometry": {"type": "Point", "coordinates": [16.9510672, 52.4016752]}, "properties": {"university": "Politechnika Poznańska", "name": "Centrum Języków i Komunikacji"}}, {"type": "Feature", "geometry": {"type": "Point", "coordinates": [16.942079, 52.4637336]}, "properties": {"university": "Uniwersytet im. Adama Mickiewicza", "name": "Wydział Geografii Społeczno-Ekonomicznej i Gospodarki Przestrzennej UAM"}}, {"type": "Feature", "geometry": {"type": "Point", "coordinates": [16.9213021, 52.4036519]}, "properties": {"university": "Uniwersytet im. Adama Mickiewicza", "name": "Collegium Novum"}}, {"type": "Feature", "geometry": {"type": "Point", "coordinates": [16.8900631, 52.4085968]}, "properties": {"university": "Uniwersytet Medyczny im. K. Marcinkowskiego", "name": "Centrum Stomatologii Uniwersytetu Medycznego"}}, {"type": "Feature", "geometry": {"type": "Point", "coordinates": [16.8893719, 52.4073707]}, "properties": {"university": "Uniwersytet Medyczny im. K. Marcinkowskiego", "name": "Centrum Kongresowo-Dydaktyczne Uniwersytetu Medycznego"}}, {"type": "Feature", "geometry": {"type": "Point", "coordinates": [16.9534927, 52.4024677]}, "properties": {"university": "Politechnika Poznańska", "name": "Centrum Mechatroniki Biomechaniki i Nanoinżynierii"}}, {"type": "Feature", "geometry": {"type": "Point", "coordinates": [16.9269951, 52.4667973]}, "properties": {"university": "Uniwersytet im. Adama Mickiewicza", "name": "Collegium Mathematicum im. Władysława Orlicza"}}, {"type": "Feature", "geometry": {"type": "Point", "coordinates": [16.918197, 52.3941997]}, "properties": {"university": "Politechnika Poznańska", "name": "Rektorat Politechniki Poznańskiej"}}, {"type": "Feature", "geometry": {"type": "Point", "coordinates": [16.9506358, 52.4049752]}, "properties": {"university": "Politechnika Poznańska", "name": "Centrum Dydaktyczne Wydziału Technologii Chemicznej"}}, {"type": "Feature", "geometry": {"type": "Point", "coordinates": [16.8958576, 52.4104309]}, "properties": {"university": "Uniwersytet Medyczny im. K. Marcinkowskiego", "name": "Centrum Kształcenia w Języku Angielskim Uniwersytetu Medycznego"}}, {"type": "Feature", "geometry": {"type": "Point", "coordinates": [16.8912623, 52.407169]}, "properties": {"university": "Uniwersytet Medyczny im. K. Marcinkowskiego", "name": "Uniwersytet Medyczny im. Karola Marcinkowskiego"}}, {"type": "Feature", "geometry": {"type": "Point", "coordinates": [16.9477892, 52.4095076]}, "properties": {"university": "Uniwersytet im. Adama Mickiewicza", "name": "Wydział Teologiczny UAM"}}, {"type": "Feature", "geometry": {"type": "Point", "coordinates": [16.9178206, 52.4289114]}, "properties": {"university": "Uniwersytet im. Adama Mickiewicza", "name": ""}}, {"type": "Feature", "geometry": {"type": "Point", "coordinates": [16.9519839, 52.4062906]}, "properties": {"university": "Politechnika Poznańska", "name": "Wydział Architektury oraz Wydział Inżynierii Zarządzania"}}, {"type": "Feature", "geometry": {"type": "Point", "coordinates": [16.8836736, 52.4145883]}, "properties": {"university": "Uniwersytet im. Adama Mickiewicza", "name": "Kampus Ogrody UAM"}}, {"type": "Feature", "geometry": {"type": "Point", "coordinates": [16.9410683, 52.4622547]}, "properties": {"university": "Uniwersytet im. Adama Mickiewicza", "name": "Stacja naukowa"}}, {"type": "Feature", "geometry": {"type": "Point", "coordinates": [16.9416046, 52.4618273]}, "properties": {"university": "Uniwersytet im. Adama Mickiewicza", "name": "Stacja pomiarowa Różany Potok"}}, {"type": "Feature", "geometry": {"type": "Point", "coordinates": [16.917804, 52.3944422]}, "properties": {"university": "Politechnika Poznańska", "name": "Politechnika Poznańska (Kampus Wilda)"}}, {"type": "Feature", "geometry": {"type": "Point", "coordinates": [16.9248713, 52.4161582]}, "properties": {"university": "Uniwersytet im. Adama Mickiewicza", "name": "Kampus Śródmiejski UAM"}}, {"type": "Feature", "geometry": {"type": "Point", "coordinates": [16.904707, 52.4041644]}, "properties": {"university": "Uniwersytet Medyczny im. K. Marcinkowskiego", "name": "Uniwersytet Medyczny im. Karola Marcinkowskiego"}}, {"type": "Feature", "geometry": {"type": "Point", "coordinates": [16.9051309, 52.4055563]}, "properties": {"university": "Uniwersytet Medyczny im. K. Marcinkowskiego", "name": "Uniwersytet Medyczny im. Karola Marcinkowskiego"}}, {"type": "Feature", "geometry": {"type": "Point", "coordinates": [16.9400267, 52.4029912]}, "properties": {"university": "Uniwersytet Medyczny im. K. Marcinkowskiego", "name": ""}}, {"type": "Feature", "geometry": {"type": "Point", "coordinates": [16.9247863, 52.4674462]}, "properties": {"university": "Uniwersytet im. Adama Mickiewicza", "name": "Kampus Morasko UAM (część zachodnia)"}}, {"type": "Feature", "geometry": {"type": "Point", "coordinates": [16.8772498, 52.4057818]}, "properties": {"university": "Uniwersytet im. Adama Mickiewicza", "name": "Uniwersytet im. Adama Mickiewicza w Poznaniu"}}]}