{
"type": "FeatureCollection",
"name": "gzm_hex_boundary_2000m",
"crs": { "type": "name", "properties": { "name": "urn:ogc:def:crs:OGC:1.3:CRS84" } },
"xy_coordinate_resolution": 1e-15,
"features": [
{ "type": "Feature", "properties": { "id": 7, "left": 454001.69550257776, "top": 284785.52793201152, "right": 456311.09657933627, "bottom": 282785.52793201152, "row_index": 6, "col_index": 0 }, "geometry": { "type": "MultiPolygon", "coordinates": [ [ [ [ 18.460546840504431, 50.19502714008739 ], [ 18.452353095420442, 50.203985321288052 ], [ 18.460344007542812, 50.213019213034315 ], [ 18.452147116340957, 50.221977341896576 ], [ 18.435956373619661, 50.22189987726258 ], [ 18.427753392790652, 50.230856250943312 ], [ 18.435744092911218, 50.239891792071063 ], [ 18.427537956565683, 50.248848112289274 ], [ 18.411338180984888, 50.248767186956087 ], [ 18.403125945887936, 50.257721748192807 ], [ 18.386923233401149, 50.257637409224358 ], [ 18.378704896609349, 50.266590208787498 ], [ 18.386692206995399, 50.275629054385824 ], [ 18.378470699071617, 50.284581798244602 ], [ 18.386460946058349, 50.293620642777825 ], [ 18.378236263747162, 50.302573330914612 ], [ 18.386229450279355, 50.3116121744061 ], [ 18.378001590320945, 50.320564806803233 ], [ 18.385997719347206, 50.329603649276372 ], [ 18.377766678477361, 50.338556225916165 ], [ 18.361536564172241, 50.338468248105535 ], [ 18.353299393834774, 50.347419055909306 ], [ 18.361295281013653, 50.356459554567444 ], [ 18.353054920267116, 50.365410305476729 ], [ 18.36105375257161, 50.374450804223159 ], [ 18.352810198134708, 50.383401498219342 ], [ 18.360811978520502, 50.392441997078343 ], [ 18.352565227107501, 50.401392634142844 ], [ 18.360569958534118, 50.410433133138767 ], [ 18.352320006854836, 50.419383713252934 ], [ 18.360327692285654, 50.428424212410185 ], [ 18.376588531912301, 50.428512470047231 ], [ 18.384602378038643, 50.437551306904041 ], [ 18.400866418254097, 50.437636183107848 ], [ 18.408886428368955, 50.446673354964602 ], [ 18.425153666193502, 50.446754847520964 ], [ 18.433179843585989, 50.455790351676697 ], [ 18.449450276031566, 50.455868458372436 ], [ 18.45768836156844, 50.446911011284399 ], [ 18.473955814935167, 50.44698568244366 ], [ 18.482187732907843, 50.438026468403557 ], [ 18.498452203920802, 50.438097706150828 ], [ 18.506490922567554, 50.447128203202993 ], [ 18.52275857264922, 50.447196052759438 ], [ 18.530981337304389, 50.43823336215489 ], [ 18.547245995493647, 50.438297780370192 ], [ 18.555462595338842, 50.429333329836709 ], [ 18.571724258381394, 50.429394318840536 ], [ 18.57993469643678, 50.42042811108945 ], [ 18.596193361086655, 50.420485673012678 ], [ 18.604247747490483, 50.429509479258371 ], [ 18.59604031096201, 50.438477395634621 ], [ 18.604097702027723, 50.447501191499441 ], [ 18.595887105023071, 50.456469061983221 ], [ 18.603947503785527, 50.465492847483844 ], [ 18.620221662223457, 50.465547087748647 ], [ 18.628288235540964, 50.474569187065981 ], [ 18.644565554653536, 50.474620030279617 ], [ 18.652638305766466, 50.483640440706743 ], [ 18.668918782502278, 50.483687884670488 ], [ 18.676997714646987, 50.492706603499173 ], [ 18.693281345946279, 50.492750646015367 ], [ 18.701479861886497, 50.483775941710988 ], [ 18.717760460338724, 50.48381655476075 ], [ 18.725848725093588, 50.492831897929157 ], [ 18.74213246874254, 50.492869107301857 ], [ 18.750226917911103, 50.501882751805816 ], [ 18.766513803675917, 50.501916555308675 ], [ 18.774614440474007, 50.510928498436741 ], [ 18.766425051429458, 50.519908322711359 ], [ 18.774528739984088, 50.528920248037643 ], [ 18.790824958771861, 50.528950662808384 ], [ 18.799011292904797, 50.519969132917446 ], [ 18.815304453625163, 50.519996118106647 ], [ 18.823417475313473, 50.529004650343268 ], [ 18.83971376885674, 50.52902822309084 ], [ 18.847832987797521, 50.538035045809323 ], [ 18.864132411049205, 50.538055203926838 ], [ 18.872306415961603, 50.529068526510031 ], [ 18.864184070470404, 50.520063393921617 ], [ 18.872354951989696, 50.511076682673888 ], [ 18.888645107170404, 50.511093402700297 ], [ 18.896809797674731, 50.502104957397414 ], [ 18.888687405910225, 50.493101492296567 ], [ 18.896848982513784, 50.484113014256245 ], [ 18.913129878992567, 50.484126302718145 ], [ 18.921255381507475, 50.493128077666832 ], [ 18.937539385586991, 50.493137953627375 ], [ 18.945691703441049, 50.484146048362284 ], [ 18.961972627213974, 50.484152505538475 ], [ 18.970107415808855, 50.493150872084072 ], [ 18.98639143775161, 50.493153914576283 ], [ 18.99453241113072, 50.502150560707463 ], [ 19.010819528099201, 50.502150186342227 ], [ 19.018959484801737, 50.493153166083779 ], [ 19.035243505709499, 50.493149375099271 ], [ 19.04339375574747, 50.502142601963442 ], [ 19.059680862224855, 50.502135391952216 ], [ 19.067837300186294, 50.511126891343856 ], [ 19.084127489068223, 50.511116260137463 ], [ 19.092290118089529, 50.520106029340553 ], [ 19.108583386202529, 50.52009197477166 ], [ 19.116752209415854, 50.529080011068949 ], [ 19.133048553578043, 50.529062530971395 ], [ 19.141223574111301, 50.538048831644332 ], [ 19.157522991132378, 50.538027923853065 ], [ 19.165641188229998, 50.529020728681331 ], [ 19.181937474509091, 50.528996406501676 ], [ 19.19012176198601, 50.537979264029381 ], [ 19.206421111605135, 50.537951512011901 ], [ 19.214529974446961, 50.528940920110415 ], [ 19.230826183895179, 50.528909755915862 ], [ 19.239019728694579, 50.537889163808252 ], [ 19.255318991951597, 50.537854567641226 ], [ 19.263418511223932, 50.528840585576724 ], [ 19.279714624894051, 50.52880257945337 ], [ 19.287917417357157, 50.537778531229904 ], [ 19.30421657529255, 50.53773709100895 ], [ 19.312306741719922, 50.528719725357419 ], [ 19.328602740665424, 50.528674877410275 ], [ 19.33668671023295, 50.519655815801421 ], [ 19.328477841867894, 50.510683283748186 ], [ 19.312188036626015, 50.510728103193529 ], [ 19.303985358809765, 50.501753819264621 ], [ 19.28769858844279, 50.501795206829918 ], [ 19.279502098102373, 50.492819173743698 ], [ 19.287589341076185, 50.483803460508049 ], [ 19.279395996959803, 50.474827386776184 ], [ 19.287480204905677, 50.465811658095838 ], [ 19.303754612915323, 50.465770323106632 ], [ 19.311832645974118, 50.456752900012411 ], [ 19.303639416047577, 50.447778490855583 ], [ 19.311714423431493, 50.438761053366385 ], [ 19.303524336358098, 50.429786602480831 ], [ 19.311596321125975, 50.420769150582998 ], [ 19.30340937369122, 50.411794657975669 ], [ 19.311478338897864, 50.402777191655552 ], [ 19.327731114068037, 50.402732542769499 ], [ 19.335921077932898, 50.411705331839364 ], [ 19.352176866402768, 50.411657262004198 ], [ 19.360236536148193, 50.402636433634129 ], [ 19.376489178887155, 50.402584973414193 ], [ 19.384542695949904, 50.393562460858689 ], [ 19.376346717996604, 50.384593080392193 ], [ 19.384397234267727, 50.375570556585387 ], [ 19.376204401857873, 50.366601131120937 ], [ 19.384251920363269, 50.357578596046856 ], [ 19.376062230278997, 50.348609125593931 ], [ 19.384106754040591, 50.339586579236666 ], [ 19.375920203068357, 50.330617063804681 ], [ 19.383961735104119, 50.321594506148351 ], [ 19.375778320034687, 50.312624945746755 ], [ 19.383816863358643, 50.30360237677548 ], [ 19.375636580987063, 50.29463277141371 ], [ 19.383672138609295, 50.285610191111665 ], [ 19.375494985734914, 50.276640540799129 ], [ 19.38352756066157, 50.267617949150505 ], [ 19.375353534088021, 50.25864825389661 ], [ 19.359149913312901, 50.25869945339133 ], [ 19.35098198963561, 50.249728017384413 ], [ 19.334781351741178, 50.249775813314386 ], [ 19.326619527955625, 50.240802639244656 ], [ 19.310421876121701, 50.240847033732351 ], [ 19.302379950159931, 50.249864630462817 ], [ 19.286179190597515, 50.249905651654252 ], [ 19.278026456018399, 50.240929050084887 ], [ 19.2618286918708, 50.240966671924788 ], [ 19.253777564240373, 50.249980919209214 ], [ 19.23757670157023, 50.250015165549819 ], [ 19.229433065688347, 50.241035142874594 ], [ 19.237487288749872, 50.232022563881571 ], [ 19.229346745208307, 50.223042502820171 ], [ 19.213154981360699, 50.223073332340725 ], [ 19.205020528795639, 50.214091545563136 ], [ 19.213074836237809, 50.205080616605457 ], [ 19.204943466695021, 50.196098792532347 ], [ 19.212994772299439, 50.187087844751304 ], [ 19.22917436653287, 50.187057054323944 ], [ 19.237219593494181, 50.178044422062271 ], [ 19.253396104817217, 50.178010262523124 ], [ 19.261435256272232, 50.168995948457194 ], [ 19.253300981305173, 50.16001745794987 ], [ 19.26133714625508, 50.151003127159171 ], [ 19.253205954076027, 50.142024597202941 ], [ 19.261239135528424, 50.133010249675785 ], [ 19.253111023002873, 50.124031680275891 ], [ 19.261141223961442, 50.115017316000582 ], [ 19.253016187959044, 50.106038707162291 ], [ 19.236863929512488, 50.10607278015911 ], [ 19.228744944463617, 50.097092450518929 ], [ 19.236775238265416, 50.088079729257302 ], [ 19.228659320495517, 50.079099361266493 ], [ 19.236686636681053, 50.070086622172234 ], [ 19.252826805453854, 50.070052592349867 ], [ 19.260848082913789, 50.06103817776021 ], [ 19.252732257740298, 50.052059450638289 ], [ 19.236598124641468, 50.052093458897531 ], [ 19.228488332091651, 50.043113014218811 ], [ 19.212357170620212, 50.04314364885591 ], [ 19.204329771049437, 50.052154747588816 ], [ 19.188195554621569, 50.052182028002335 ], [ 19.180094769481411, 50.04319819239317 ], [ 19.163963533876771, 50.043222101276868 ], [ 19.155868778467578, 50.034236555030795 ], [ 19.139740526775981, 50.034257094502571 ], [ 19.131651798091355, 50.025269840284075 ], [ 19.115526533394608, 50.025287012462968 ], [ 19.107443828424085, 50.016298052935355 ], [ 19.091321553795993, 50.016311859941496 ], [ 19.083244869525057, 50.007321197766849 ], [ 19.067125588031423, 50.0073316417215 ], [ 19.059076972114632, 50.016332754469076 ], [ 19.042954669116295, 50.016339841984212 ], [ 19.034900032462634, 50.025339265321904 ], [ 19.018774710988154, 50.025342994264506 ], [ 19.010714050545765, 50.034340725531742 ], [ 18.994585713631707, 50.034341093769896 ], [ 18.986519026352713, 50.04333713030482 ], [ 18.970387677043636, 50.043334135707696 ], [ 18.962314959884161, 50.052328474847286 ], [ 18.946180601232644, 50.052322115285186 ], [ 18.938124991644536, 50.043321420614056 ], [ 18.921993659617456, 50.043311700121379 ], [ 18.913911906305003, 50.052302668138644 ], [ 18.897777574094484, 50.052289580560092 ], [ 18.889689787896469, 50.061278844256535 ], [ 18.873552458575098, 50.061262387467309 ], [ 18.865508950344008, 50.052256677412231 ], [ 18.8493746628696, 50.05223686185284 ], [ 18.841277849783179, 50.061222743788129 ], [ 18.825140574380814, 50.061199556910161 ], [ 18.817037725456014, 50.070183727599208 ], [ 18.825075137786641, 50.07919276152829 ], [ 18.841218452079829, 50.079215963108915 ], [ 18.849261906355071, 50.088223314131831 ], [ 18.841158994276164, 50.097209126305948 ], [ 18.825009634981903, 50.097185910011703 ], [ 18.816900674844124, 50.106170008786371 ], [ 18.824944065879372, 50.115179002366865 ], [ 18.816832045479934, 50.12416306518039 ], [ 18.8006736411905, 50.124136454298338 ], [ 18.792555563590462, 50.133118799961004 ], [ 18.800598882065085, 50.142129437687608 ], [ 18.792477734960109, 50.151111746305851 ], [ 18.776310276623466, 50.151081734410376 ], [ 18.768183063164297, 50.160062322120304 ], [ 18.776226299721063, 50.169074605580356 ], [ 18.768096007489394, 50.178055155159015 ], [ 18.776142237718791, 50.187067420608692 ], [ 18.768008863581212, 50.196047932051812 ], [ 18.751826263547695, 50.196014491502488 ], [ 18.74378311830278, 50.1870005607229 ], [ 18.72760360633297, 50.186963750848982 ], [ 18.719566539622559, 50.177948139416976 ], [ 18.703390118729232, 50.177907962383237 ], [ 18.695359127405766, 50.168890672974676 ], [ 18.679185800593569, 50.168847130946936 ], [ 18.671160881505553, 50.159828166236373 ], [ 18.654990651771016, 50.159781261381525 ], [ 18.646839271020159, 50.168753291486418 ], [ 18.630666072358832, 50.168702994082111 ], [ 18.622650325489776, 50.159680698472954 ], [ 18.606480233040156, 50.159627040449742 ], [ 18.598319817536403, 50.16859564400167 ], [ 18.582146765474963, 50.168538591358107 ], [ 18.573980278098301, 50.177505455836709 ], [ 18.557804269602514, 50.177445006462811 ], [ 18.549800822300508, 50.168417730950821 ], [ 18.533627935286908, 50.168353923223755 ], [ 18.525630559640064, 50.159324985315649 ], [ 18.509460797068154, 50.159257821413455 ], [ 18.50128234065518, 50.168219552819558 ], [ 18.485109637136187, 50.168148990183198 ], [ 18.476925109310184, 50.177108973989476 ], [ 18.484916223774267, 50.186141217903611 ], [ 18.476728559204634, 50.195101150491915 ], [ 18.460546840504431, 50.19502714008739 ] ] ], [ [ [ 19.375778320034687, 50.312624945746755 ], [ 19.383961735104123, 50.321594506148351 ], [ 19.375920203068357, 50.330617063804681 ], [ 19.384106754040594, 50.339586579236666 ], [ 19.376062230278997, 50.348609125593931 ], [ 19.384251920363273, 50.357578596046856 ], [ 19.376204401857873, 50.366601131120937 ], [ 19.38439723426773, 50.375570556585387 ], [ 19.400640581908078, 50.37551574299895 ], [ 19.408684954968763, 50.366491538758368 ], [ 19.424925154044619, 50.366433341320786 ], [ 19.432963387118843, 50.357407459341822 ], [ 19.424764571655984, 50.348441442312343 ], [ 19.432799819439367, 50.339415551168429 ], [ 19.424604152329408, 50.33044948696157 ], [ 19.432636417827357, 50.321423586635255 ], [ 19.424443895848871, 50.312457475262171 ], [ 19.43247318206285, 50.30343156573602 ], [ 19.424283801998733, 50.294465407207788 ], [ 19.408068113041448, 50.294523457029499 ], [ 19.399884848072148, 50.285555551261773 ], [ 19.407914293599436, 50.276531295779108 ], [ 19.399734161129377, 50.267563343969712 ], [ 19.38352756066157, 50.267617949150505 ], [ 19.375494985734917, 50.276640540799129 ], [ 19.383672138609295, 50.285610191111665 ], [ 19.375636580987063, 50.29463277141371 ], [ 19.383816863358646, 50.30360237677548 ], [ 19.375778320034687, 50.312624945746755 ] ] ], [ [ [ 19.424764571655984, 50.348441442312343 ], [ 19.432963387118846, 50.357407459341822 ], [ 19.424925154044622, 50.366433341320786 ], [ 19.433127121086144, 50.3753993111618 ], [ 19.449370308461489, 50.375337692946644 ], [ 19.457405386838115, 50.366310144021895 ], [ 19.47364541639628, 50.366245144198182 ], [ 19.48167435501135, 50.357215921874968 ], [ 19.47346642384716, 50.348253364662654 ], [ 19.481492386636155, 50.339224135287743 ], [ 19.473287613052754, 50.330261528694983 ], [ 19.481310603008474, 50.321232292249384 ], [ 19.473108983772264, 50.312269636289003 ], [ 19.456887345460402, 50.312334512414793 ], [ 19.448691847305877, 50.303370103821941 ], [ 19.43247318206285, 50.30343156573602 ], [ 19.424443895848874, 50.312457475262171 ], [ 19.432636417827357, 50.321423586635255 ], [ 19.424604152329412, 50.33044948696157 ], [ 19.432799819439371, 50.339415551168429 ], [ 19.424764571655984, 50.348441442312343 ] ] ], [ [ [ 19.497911223751487, 50.357147542639375 ], [ 19.505934025845114, 50.348116649611114 ], [ 19.497723121970814, 50.339155799458418 ], [ 19.505742954468886, 50.330124900423321 ], [ 19.497535211164042, 50.321163999793697 ], [ 19.481310603008477, 50.321232292249384 ], [ 19.473287613052758, 50.330261528694983 ], [ 19.481492386636159, 50.339224135287743 ], [ 19.473466423847164, 50.348253364662654 ], [ 19.48167435501135, 50.357215921874968 ], [ 19.497911223751487, 50.357147542639375 ] ] ] ] } }
]
}
